{
  "type": "FeatureCollection",
  "features": [
    {
      "type": "Feature",
      "properties": {
        "name": "Haldibari Hospital",
        "type": "Hospital"
      },
      "geometry": {
        "type": "Point",
        "coordinates": [
          88.765,
          26.35
        ]
      }
    },
    {
      "type": "Feature",
      "properties": {
        "name": "Mekhliganj Police Station",
        "type": "Police Station"
      },
      "geometry": {
        "type": "Point",
        "coordinates": [
          88.8,
          26.33
        ]
      }
    },
    {
      "type": "Feature",
      "properties": {
        "name": "Maynaguri Fire Station",
        "type": "Fire Station"
      },
      "geometry": {
        "type": "Point",
        "coordinates": [
          88.79,
          26.4
        ]
      }
    }
  ]
}