{
"type": "FeatureCollection",
"name": "risk_zones",
"features": [
{ "type": "Feature", "properties": { "name": "Malbazar Municipality Waterlogging Zone", "risk": "Low", "population": 500 }, "geometry": { "type": "Polygon", "coordinates": [ [ [ 88.7525127260094, 26.863022127885813 ], [ 88.752400743650526, 26.862644764603658 ], [ 88.751822712499973, 26.862804269366336 ], [ 88.751963070517093, 26.863179172312186 ], [ 88.7525127260094, 26.863022127885813 ] ] ] } },
{ "type": "Feature", "properties": { "name": "Malbazar Municipality Waterlogging Zone", "risk": "Low", "population": 500 }, "geometry": { "type": "Polygon", "coordinates": [ [ [ 88.736172273272871, 26.86314888375648 ], [ 88.735757715475359, 26.862160060874771 ], [ 88.734034419015529, 26.863016791738289 ], [ 88.73423644601155, 26.863660945805975 ], [ 88.735045463588961, 26.863475348337545 ], [ 88.736172273272871, 26.86314888375648 ] ] ] } },
{ "type": "Feature", "properties": { "name": "Malbazar Municipality Waterlogging Zone", "risk": "Low", "population": 500 }, "geometry": { "type": "Polygon", "coordinates": [ [ [ 88.739924663450324, 26.865633824285737 ], [ 88.739764049832445, 26.865159121815168 ], [ 88.739474945320183, 26.865255489985884 ], [ 88.73962842055505, 26.865726623264948 ], [ 88.739924663450324, 26.865633824285737 ] ] ] } },
{ "type": "Feature", "properties": { "name": "Malbazar Municipality Waterlogging Zone", "risk": "Low", "population": 500 }, "geometry": { "type": "Polygon", "coordinates": [ [ [ 88.737855166898214, 26.866799046340248 ], [ 88.737736193847979, 26.866484957487557 ], [ 88.737398310385061, 26.86658489484978 ], [ 88.737503006669442, 26.866918019390482 ], [ 88.737855166898214, 26.866799046340248 ] ] ] } },
{ "type": "Feature", "properties": { "name": "Malbazar Municipality Waterlogging Zone", "risk": "Low", "population": 500 }, "geometry": { "type": "Polygon", "coordinates": [ [ [ 88.736983521952709, 26.871210198762583 ], [ 88.736834093352684, 26.870912536492142 ], [ 88.73556382526499, 26.871071844468531 ], [ 88.735708024056407, 26.872059811747931 ], [ 88.736081230510592, 26.871946879098005 ], [ 88.7370825075987, 26.871908808182013 ], [ 88.73696639062041, 26.871531901396736 ], [ 88.736983521952709, 26.871210198762583 ] ] ] } },
{ "type": "Feature", "properties": { "name": "Maynaguri Municipality Waterloging Zone", "risk": "Medium", "population": 500 }, "geometry": { "type": "Polygon", "coordinates": [ [ [ 88.823545954502379, 26.554367123707209 ], [ 88.82412297379625, 26.552760987528302 ], [ 88.82530675564675, 26.553807950370754 ], [ 88.825390036781812, 26.553742515193164 ], [ 88.824117025143835, 26.552606322562838 ], [ 88.823890976348139, 26.55302272823883 ], [ 88.823462673367146, 26.554343329097208 ], [ 88.823545954502379, 26.554367123707209 ] ] ] } },
{ "type": "Feature", "properties": { "name": "Maynaguri Municipality Waterloging Zone", "risk": "Medium", "population": 500 }, "geometry": { "type": "Polygon", "coordinates": [ [ [ 88.825068809546053, 26.556223103291813 ], [ 88.824884401318172, 26.554616967112736 ], [ 88.824807068835526, 26.554622915765322 ], [ 88.824967682453405, 26.556229051944229 ], [ 88.825068809546053, 26.556223103291813 ] ] ] } },
{ "type": "Feature", "properties": { "name": "Maynaguri Municipality Waterloging Zone", "risk": "Medium", "population": 500 }, "geometry": { "type": "Polygon", "coordinates": [ [ [ 88.821871170873465, 26.558092764776973 ], [ 88.821785510277323, 26.558054693400891 ], [ 88.821033600599378, 26.559234906059885 ], [ 88.821176368259785, 26.559282495279888 ], [ 88.821871170873465, 26.558092764776973 ] ] ] } },
{ "type": "Feature", "properties": { "name": "Maynaguri Municipality Waterloging Zone", "risk": "Medium", "population": 500 }, "geometry": { "type": "Polygon", "coordinates": [ [ [ 88.814908161018025, 26.559247110299111 ], [ 88.812205130854409, 26.556486382462367 ], [ 88.812125858309628, 26.556546150815109 ], [ 88.81482892601224, 26.55931584342602 ], [ 88.814908161018025, 26.559247110299111 ] ] ] } },
{ "type": "Feature", "properties": { "name": "Maynaguri Municipality Waterloging Zone", "risk": "Medium", "population": 500 }, "geometry": { "type": "Polygon", "coordinates": [ [ [ 88.814038746669837, 26.557822235923823 ], [ 88.815412885400633, 26.557661622305943 ], [ 88.817096354062357, 26.557584289823126 ], [ 88.817084456757357, 26.557506957340479 ], [ 88.8153177069604, 26.557596187128297 ], [ 88.813967362839605, 26.557762749398591 ], [ 88.812489320978102, 26.556239497778108 ], [ 88.812427851568827, 26.556280345191908 ], [ 88.817429478603117, 26.561450913957572 ], [ 88.817500862433349, 26.561367632822339 ], [ 88.814038746669837, 26.557822235923823 ] ] ] } },
{ "type": "Feature", "properties": { "name": "Maynaguri Municipality Waterloging Zone", "risk": "Medium", "population": 500 }, "geometry": { "type": "Polygon", "coordinates": [ [ [ 88.815846145592104, 26.561880902390214 ], [ 88.81503236992819, 26.561623920601619 ], [ 88.81504664669427, 26.562352035669448 ], [ 88.815803315294033, 26.562566187159916 ], [ 88.815846145592104, 26.561880902390214 ] ] ] } },
{ "type": "Feature", "properties": { "name": "Maynaguri Municipality Waterloging Zone", "risk": "Medium", "population": 500 }, "geometry": { "type": "Polygon", "coordinates": [ [ [ 88.810541137279642, 26.561715529850346 ], [ 88.809427549528948, 26.561429994529647 ], [ 88.809313335400645, 26.562372261087944 ], [ 88.81044119991742, 26.562614966110573 ], [ 88.810541137279642, 26.561715529850346 ] ] ] } },
{ "type": "Feature", "properties": { "name": "Maynaguri Municipality Waterloging Zone", "risk": "Medium", "population": 500 }, "geometry": { "type": "Polygon", "coordinates": [ [ [ 88.817166746450482, 26.563581027278872 ], [ 88.815120409985411, 26.562819599756949 ], [ 88.81509185645325, 26.562971885261334 ], [ 88.8171286750744, 26.563685723563253 ], [ 88.817166746450482, 26.563581027278872 ] ] ] } },
{ "type": "Feature", "properties": { "name": "Maynaguri Municipality Waterloging Zone", "risk": "Medium", "population": 500 }, "geometry": { "type": "Polygon", "coordinates": [ [ [ 88.834862665707362, 26.563236354747858 ], [ 88.831698463800649, 26.560474248324795 ], [ 88.830480179765573, 26.561844817864085 ], [ 88.831736535176731, 26.563139244651325 ], [ 88.83202207049743, 26.564547885566697 ], [ 88.830518251141655, 26.564852456575466 ], [ 88.829547431051367, 26.565061849144001 ], [ 88.827777112062904, 26.565233170336455 ], [ 88.827872290503137, 26.565918455105987 ], [ 88.828652753713129, 26.566051704922359 ], [ 88.830112442008158, 26.566108143479084 ], [ 88.832153921530278, 26.565903237399596 ], [ 88.835162959025013, 26.565690026849609 ], [ 88.834862665707362, 26.563236354747858 ] ] ] } },
{ "type": "Feature", "properties": { "name": "Maynaguri Municipality Waterloging Zone", "risk": "Medium", "population": 500 }, "geometry": { "type": "Polygon", "coordinates": [ [ [ 88.829090574538213, 26.566794096756212 ], [ 88.835105851960861, 26.566242061802825 ], [ 88.835124887648931, 26.566070740610371 ], [ 88.829053144013415, 26.566580313000543 ], [ 88.828010752423836, 26.566330990360655 ], [ 88.827853254815068, 26.566527597123525 ], [ 88.829090574538213, 26.566794096756212 ] ] ] } },
{ "type": "Feature", "properties": { "name": "Maynaguri Municipality Waterloging Zone", "risk": "Medium", "population": 500 }, "geometry": { "type": "Polygon", "coordinates": [ [ [ 88.815482088058332, 26.567335816746152 ], [ 88.814240009413197, 26.567235879383929 ], [ 88.81419069190116, 26.568071756191898 ], [ 88.814154348817112, 26.568435127730766 ], [ 88.81405441145472, 26.568563618625149 ], [ 88.813868813496356, 26.568749216583512 ], [ 88.813640385239808, 26.568849153945848 ], [ 88.813183528726654, 26.569134689266605 ], [ 88.813283466088819, 26.569291733692921 ], [ 88.815396427462019, 26.568378020666614 ], [ 88.815482088058332, 26.567335816746152 ] ] ] } },
{ "type": "Feature", "properties": { "name": "Maynaguri Municipality Waterloging Zone", "risk": "Medium", "population": 500 }, "geometry": { "type": "Polygon", "coordinates": [ [ [ 88.823867784535082, 26.570207826180138 ], [ 88.823777545668179, 26.569754627681846 ], [ 88.822639982656085, 26.56789499008238 ], [ 88.822544804215795, 26.567952097146531 ], [ 88.823667909810638, 26.569789041043066 ], [ 88.82375357040678, 26.570017469299671 ], [ 88.822754196784331, 26.570160236959964 ], [ 88.822782750316492, 26.57027445108821 ], [ 88.823763088250701, 26.570122165583825 ], [ 88.823810677470931, 26.570388665216683 ], [ 88.823886820223095, 26.570826486041597 ], [ 88.822211679675092, 26.571073949986271 ], [ 88.822230715363105, 26.571159610582356 ], [ 88.823972480819407, 26.570902628793817 ], [ 88.823915373755085, 26.570483843656746 ], [ 88.823867784535082, 26.570207826180138 ] ] ] } },
{ "type": "Feature", "properties": { "name": "Maynaguri Municipality Waterloging Zone", "risk": "Medium", "population": 500 }, "geometry": { "type": "Polygon", "coordinates": [ [ [ 88.818361176388692, 26.571967497080493 ], [ 88.817183343191004, 26.571908010555319 ], [ 88.817195240496005, 26.572145956656016 ], [ 88.817195240496005, 26.57225303240125 ], [ 88.818301689863688, 26.572241135096249 ], [ 88.818361176388692, 26.571967497080493 ] ] ] } },
{ "type": "Feature", "properties": { "name": "Maynaguri Municipality Waterloging Zone", "risk": "Medium", "population": 500 }, "geometry": { "type": "Polygon", "coordinates": [ [ [ 88.824198529614932, 26.572884719811725 ], [ 88.824162837699703, 26.572584907724888 ], [ 88.822842236841552, 26.572684845087281 ], [ 88.822877928756554, 26.57304890262111 ], [ 88.824198529614932, 26.572884719811725 ] ] ] } },
{ "type": "Feature", "properties": { "name": "Maynaguri Municipality Waterloging Zone", "risk": "Medium", "population": 500 }, "geometry": { "type": "Polygon", "coordinates": [ [ [ 88.835594026146737, 26.575101842090362 ], [ 88.83401406403874, 26.574530771448906 ], [ 88.833918885598678, 26.574987627962059 ], [ 88.835479812018434, 26.575539662915446 ], [ 88.835594026146737, 26.575101842090362 ] ] ] } },
{ "type": "Feature", "properties": { "name": "Maynaguri Municipality Waterloging Zone", "risk": "Medium", "population": 500 }, "geometry": { "type": "Polygon", "coordinates": [ [ [ 88.824329657745125, 26.577205285619584 ], [ 88.82183122368906, 26.576158322776962 ], [ 88.821743889130971, 26.57643036072966 ], [ 88.824136206148694, 26.577582218987459 ], [ 88.824329657745125, 26.577205285619584 ] ] ] } },
{ "type": "Feature", "properties": { "name": "Maynaguri Municipality Waterloging Zone", "risk": "Medium", "population": 500 }, "geometry": { "type": "Polygon", "coordinates": [ [ [ 88.837485697646343, 26.577566963692504 ], [ 88.837235854240646, 26.577055379576279 ], [ 88.836878935089885, 26.577162455321513 ], [ 88.837104983885411, 26.577662142132738 ], [ 88.837485697646343, 26.577566963692504 ] ] ] } },
{ "type": "Feature", "properties": { "name": "Maynaguri Municipality Waterloging Zone", "risk": "Medium", "population": 500 }, "geometry": { "type": "Polygon", "coordinates": [ [ [ 88.835934289070565, 26.579967839847257 ], [ 88.835915253382495, 26.579729893746787 ], [ 88.835534539621506, 26.579891697095093 ], [ 88.835772485722202, 26.580300964388186 ], [ 88.836029467510798, 26.58049132126871 ], [ 88.836162717327113, 26.580443732048479 ], [ 88.836286449299337, 26.580405660672398 ], [ 88.836248377923255, 26.580329517920177 ], [ 88.836058021042788, 26.580215303791874 ], [ 88.835934289070565, 26.579967839847257 ] ] ] } },
{ "type": "Feature", "properties": { "name": "Jalpaiguri Municipality Waterloging Zone", "risk": "Medium", "population": 500 }, "geometry": { "type": "Polygon", "coordinates": [ [ [ 88.731643896396747, 26.507219353838707 ], [ 88.729918787167605, 26.505821420497853 ], [ 88.729591611279261, 26.506297312699076 ], [ 88.731435693558865, 26.507873705615395 ], [ 88.731643896396747, 26.507219353838707 ] ] ] } },
{ "type": "Feature", "properties": { "name": "Jalpaiguri Municipality Waterloging Zone", "risk": "Medium", "population": 500 }, "geometry": { "type": "Polygon", "coordinates": [ [ [ 88.716095308454044, 26.511143085037304 ], [ 88.715067381299662, 26.511028870909001 ], [ 88.71493413148329, 26.512171012191914 ], [ 88.715943022949887, 26.512304262008229 ], [ 88.716095308454044, 26.511143085037304 ] ] ] } },
{ "type": "Feature", "properties": { "name": "Jalpaiguri Municipality Waterloging Zone", "risk": "Medium", "population": 500 }, "geometry": { "type": "Polygon", "coordinates": [ [ [ 88.735888943155828, 26.514439444930076 ], [ 88.734968635511905, 26.511907778099442 ], [ 88.734261303503274, 26.512245965213651 ], [ 88.735064371592614, 26.514833629057364 ], [ 88.735888943155828, 26.514439444930076 ] ] ] } },
{ "type": "Feature", "properties": { "name": "Jalpaiguri Municipality Waterloging Zone", "risk": "Medium", "population": 500 }, "geometry": { "type": "Polygon", "coordinates": [ [ [ 88.724887868607993, 26.515546631668656 ], [ 88.723264596977288, 26.515190069169137 ], [ 88.723074159500982, 26.515776881400654 ], [ 88.724743459479953, 26.516142332610571 ], [ 88.724887868607993, 26.515546631668656 ] ] ] } },
{ "type": "Feature", "properties": { "name": "Jalpaiguri Municipality Waterloging Zone", "risk": "Medium", "population": 500 }, "geometry": { "type": "Polygon", "coordinates": [ [ [ 88.715577775685404, 26.514623046758402 ], [ 88.714878214149792, 26.51455166292817 ], [ 88.714721169723248, 26.516079276894004 ], [ 88.715392177726926, 26.516164937490146 ], [ 88.715577775685404, 26.514623046758402 ] ] ] } },
{ "type": "Feature", "properties": { "name": "Jalpaiguri Municipality Waterloging Zone", "risk": "Medium", "population": 500 }, "geometry": { "type": "Polygon", "coordinates": [ [ [ 88.719211212641369, 26.519641330019681 ], [ 88.717831125257987, 26.519534254274447 ], [ 88.717605076462462, 26.521651974569579 ], [ 88.719389672216835, 26.521342644638821 ], [ 88.719211212641369, 26.519641330019681 ] ] ] } },
{ "type": "Feature", "properties": { "name": "Jalpaiguri Municipality Waterloging Zone", "risk": "Medium", "population": 500 }, "geometry": { "type": "Polygon", "coordinates": [ [ [ 88.723777398311483, 26.523177209074333 ], [ 88.72332054179833, 26.521021417403119 ], [ 88.722278524590138, 26.52123803513166 ], [ 88.722706640858974, 26.52333425350065 ], [ 88.723777398311483, 26.523177209074333 ] ] ] } },
{ "type": "Feature", "properties": { "name": "Jalpaiguri Municipality Waterloging Zone", "risk": "Medium", "population": 500 }, "geometry": { "type": "Polygon", "coordinates": [ [ [ 88.720193930036658, 26.523576958523336 ], [ 88.719691886747739, 26.523503105581256 ], [ 88.719784270526588, 26.524632831584142 ], [ 88.720350974463145, 26.524704823040111 ], [ 88.720193930036658, 26.523576958523336 ] ] ] } },
{ "type": "Feature", "properties": { "name": "Jalpaiguri Municipality Waterloging Zone", "risk": "Medium", "population": 500 }, "geometry": { "type": "Polygon", "coordinates": [ [ [ 88.712609398080758, 26.524155167547804 ], [ 88.710210901386858, 26.524040953419501 ], [ 88.710134758634638, 26.525278273142476 ], [ 88.712495183952456, 26.525411522958791 ], [ 88.712609398080758, 26.524155167547804 ] ] ] } },
{ "type": "Feature", "properties": { "name": "Jalpaiguri Municipality Waterloging Zone", "risk": "Medium", "population": 500 }, "geometry": { "type": "Polygon", "coordinates": [ [ [ 88.720947029445085, 26.529758005062831 ], [ 88.7208163743054, 26.529290496342355 ], [ 88.719491559507276, 26.529602456561975 ], [ 88.719671638345858, 26.530138718823764 ], [ 88.720947029445085, 26.529758005062831 ] ] ] } },
{ "type": "Feature", "properties": { "name": "Jalpaiguri Municipality Waterloging Zone", "risk": "Medium", "population": 500 }, "geometry": { "type": "Polygon", "coordinates": [ [ [ 88.711429185421764, 26.530170444970452 ], [ 88.710401258267154, 26.530094302218288 ], [ 88.710229937074701, 26.531921728270731 ], [ 88.711200757165159, 26.532016906710965 ], [ 88.711429185421764, 26.530170444970452 ] ] ] } },
{ "type": "Feature", "properties": { "name": "Jalpaiguri Municipality Waterloging Zone", "risk": "Medium", "population": 500 }, "geometry": { "type": "Polygon", "coordinates": [ [ [ 88.732615906217632, 26.533463396919444 ], [ 88.732101942640327, 26.533463396919444 ], [ 88.731802130553547, 26.534619814968437 ], [ 88.7322589870667, 26.534619814968437 ], [ 88.732615906217632, 26.533463396919444 ] ] ] } },
{ "type": "Feature", "properties": { "name": "Jalpaiguri Municipality Waterloging Zone", "risk": "Medium", "population": 500 }, "geometry": { "type": "Polygon", "coordinates": [ [ [ 88.7271526637482, 26.538226506782621 ], [ 88.726334129162126, 26.538207471094552 ], [ 88.726315093474113, 26.540739217604767 ], [ 88.7271526637482, 26.540758253292836 ], [ 88.7271526637482, 26.538226506782621 ] ] ] } },
{ "type": "Feature", "properties": { "name": "Jalpaiguri Municipality Waterloging Zone", "risk": "Medium", "population": 500 }, "geometry": { "type": "Polygon", "coordinates": [ [ [ 88.713825302654584, 26.542847420055807 ], [ 88.714068007677213, 26.542790312991826 ], [ 88.714324989465752, 26.542804589757736 ], [ 88.714482033892295, 26.541548234346749 ], [ 88.713753918824523, 26.541476850516517 ], [ 88.713739642058442, 26.542062197923826 ], [ 88.713668258228211, 26.542618991799372 ], [ 88.713539767333828, 26.543147232142587 ], [ 88.713696811760371, 26.543018741248204 ], [ 88.713825302654584, 26.542847420055807 ] ] ] } },
{ "type": "Feature", "properties": { "name": "Jalpaiguri Municipality Waterloging Zone", "risk": "Medium", "population": 500 }, "geometry": { "type": "Polygon", "coordinates": [ [ [ 88.733039450276692, 26.542867026814463 ], [ 88.730993113811621, 26.542867026814463 ], [ 88.730993113811621, 26.54346189206592 ], [ 88.733063244886694, 26.54346189206592 ], [ 88.733039450276692, 26.542867026814463 ] ] ] } },
{ "type": "Feature", "properties": { "name": "Jalpaiguri Municipality Waterloging Zone", "risk": "Medium", "population": 500 }, "geometry": { "type": "Polygon", "coordinates": [ [ [ 88.71062730706285, 26.544332203723513 ], [ 88.710798628255077, 26.544246543127201 ], [ 88.710841458553318, 26.544089498700885 ], [ 88.710356048508004, 26.543989561338662 ], [ 88.710041959655314, 26.544189436063107 ], [ 88.709813531398765, 26.544332203723513 ], [ 88.709642210206312, 26.544175159297197 ], [ 88.709599379908241, 26.54387534721036 ], [ 88.709513719312099, 26.543504151293519 ], [ 88.709827808164846, 26.543347106866975 ], [ 88.708885541606548, 26.543347106866975 ], [ 88.709056862798946, 26.544075221934975 ], [ 88.709356674885612, 26.544731953172516 ], [ 88.709527996078009, 26.544874720832809 ], [ 88.70988491522894, 26.544888997598889 ], [ 88.710056236421394, 26.544703399640355 ], [ 88.710199004081687, 26.544503524915967 ], [ 88.71062730706285, 26.544332203723513 ] ] ] } },
{ "type": "Feature", "properties": { "name": "Jalpaiguri Municipality Waterloging Zone", "risk": "Medium", "population": 500 }, "geometry": { "type": "Polygon", "coordinates": [ [ [ 88.726948030101823, 26.545984120732214 ], [ 88.724854104416522, 26.545389255480757 ], [ 88.724497185265761, 26.545674790801513 ], [ 88.724568569095993, 26.545984120732214 ], [ 88.726733878611128, 26.546626575203732 ], [ 88.726948030101823, 26.545984120732214 ] ] ] } },
{ "type": "Feature", "properties": { "name": "Rajganj_Sukahani_Khalpara_WZ", "risk": "Medium", "population": 100 }, "geometry": { "type": "Polygon", "coordinates": [ [ [ 88.535880666733931, 26.501888192726142 ], [ 88.535670877588586, 26.501812843127595 ], [ 88.535490038552211, 26.501736700375375 ], [ 88.535442449331981, 26.501422611522685 ], [ 88.535528109928293, 26.501070451293685 ], [ 88.535623288368527, 26.500699255376844 ], [ 88.535518592084202, 26.50052793418439 ], [ 88.535280645983676, 26.500537452028539 ], [ 88.534804753782453, 26.500566005560529 ], [ 88.534176576076902, 26.500518416340469 ], [ 88.534033808416609, 26.500480344964387 ], [ 88.533833933691994, 26.50023288101977 ], [ 88.533538880527374, 26.500251916707782 ], [ 88.533196238142523, 26.500251916707782 ], [ 88.532996363418079, 26.500061559827316 ], [ 88.532330114336389, 26.499994934919243 ], [ 88.531892293511305, 26.499776024506616 ], [ 88.531483026218325, 26.499718917442465 ], [ 88.531187973053534, 26.499718917442465 ], [ 88.530921473421017, 26.499975899231003 ], [ 88.530750152228563, 26.500251916707782 ], [ 88.530531241815936, 26.50086105872532 ], [ 88.530502688283946, 26.501289361706313 ], [ 88.530093420990852, 26.501498754274849 ], [ 88.530017278238631, 26.501727182531454 ], [ 88.530036313926871, 26.501898503723851 ], [ 88.530169563743016, 26.502165003356538 ], [ 88.530645455944239, 26.502165003356538 ], [ 88.530854848512774, 26.502374395925074 ], [ 88.531168937365635, 26.502517163585367 ], [ 88.531578204658615, 26.502821734594136 ], [ 88.531901018201609, 26.502750747340713 ], [ 88.531847480329134, 26.503095769186643 ], [ 88.531829634371547, 26.503387253159758 ], [ 88.531984299336841, 26.50363114791287 ], [ 88.532240091394954, 26.503583558692867 ], [ 88.53254347267324, 26.503470534294991 ], [ 88.532876597213999, 26.503494328905049 ], [ 88.533340592110221, 26.503500277557634 ], [ 88.533703459913568, 26.503488380252634 ], [ 88.533929508709093, 26.503571661387696 ], [ 88.533994943886682, 26.503440791032403 ], [ 88.534375657647672, 26.503369407202172 ], [ 88.534649295663371, 26.503428893727403 ], [ 88.534720679493603, 26.503613301955454 ], [ 88.534994317509302, 26.503732275005746 ], [ 88.53564866928582, 26.503666839827929 ], [ 88.536172150707216, 26.503369407202172 ], [ 88.536237585884862, 26.503143358406703 ], [ 88.536237585884862, 26.502851874433532 ], [ 88.536303021062508, 26.502602031027834 ], [ 88.536410096807742, 26.502334341664721 ], [ 88.536517172552976, 26.502227265919487 ], [ 88.536463634680388, 26.501959576556374 ], [ 88.535880666733931, 26.501888192726142 ] ] ] } },
{ "type": "Feature", "properties": { "name": "Rajganj_Sannyashikata_Chotupagach_WZ", "risk": "Medium", "population": 130 }, "geometry": { "type": "Polygon", "coordinates": [ [ [ 88.431144829947073, 26.581280110933733 ], [ 88.431097240726842, 26.582374662996415 ], [ 88.430954473066606, 26.58318367973834 ], [ 88.430621348525676, 26.584706534782015 ], [ 88.429812331783694, 26.585420373083764 ], [ 88.429907510223927, 26.586705282026912 ], [ 88.429003315041768, 26.587323941888542 ], [ 88.428384655180253, 26.587466709548835 ], [ 88.427575638438327, 26.58860885083152 ], [ 88.427052157016931, 26.590369651975891 ], [ 88.426623854035938, 26.591844917799506 ], [ 88.427147335457164, 26.593082237522651 ], [ 88.428241887519846, 26.594224378805336 ], [ 88.429574385683168, 26.594890627887025 ], [ 88.430097867104394, 26.596984553572156 ], [ 88.430811705406143, 26.598317051735307 ], [ 88.432334560449988, 26.599411603797989 ], [ 88.433381523292439, 26.59917365769752 ], [ 88.434951967556344, 26.599554371458453 ], [ 88.435713395078267, 26.599316425357756 ], [ 88.437712142323107, 26.59907847925723 ], [ 88.439568121907712, 26.598888122376763 ], [ 88.441043387731327, 26.598602587056064 ], [ 88.442375885894535, 26.597508034993382 ], [ 88.443660794837683, 26.5966990182514 ], [ 88.443613205617453, 26.594938217107085 ], [ 88.443137313416457, 26.59336777284318 ], [ 88.442661421215234, 26.591226257938047 ], [ 88.441852404473309, 26.588894386152276 ], [ 88.44090062007092, 26.587228763448309 ], [ 88.439758478788178, 26.585801086844697 ], [ 88.438901872826023, 26.584278231801022 ], [ 88.438806694385789, 26.582565019876881 ], [ 88.43847356984503, 26.581232521713503 ], [ 88.436284465719666, 26.58080421873251 ], [ 88.431144829947073, 26.581280110933733 ] ] ] } },
{ "type": "Feature", "properties": { "name": "Rajganj_Fulbari-I_Porajhor_WZ", "risk": "High", "population": 100 }, "geometry": { "type": "Polygon", "coordinates": [ [ [ 88.400485254659429, 26.664313833649601 ], [ 88.400526442275066, 26.665210199738169 ], [ 88.400567045252899, 26.665701964304105 ], [ 88.400624373723929, 26.667187302666321 ], [ 88.400650966925355, 26.668799416626484 ], [ 88.400719900841182, 26.66967852556877 ], [ 88.400805817552964, 26.670774214807125 ], [ 88.400993710580678, 26.67184970886359 ], [ 88.400889956414005, 26.672220605471409 ], [ 88.400765781792131, 26.672642817594465 ], [ 88.400138361608413, 26.673466110641527 ], [ 88.399475420195529, 26.673829239950749 ], [ 88.399632432347971, 26.674319784899581 ], [ 88.3999179676685, 26.675140698946507 ], [ 88.400203502989257, 26.676175764484185 ], [ 88.400239194904429, 26.677353597682099 ], [ 88.400845957460888, 26.678174511729026 ], [ 88.40198809874363, 26.67867419854025 ], [ 88.402916088536017, 26.678638506625248 ], [ 88.405521598337316, 26.67838866321955 ], [ 88.411553531987124, 26.677746208748033 ], [ 88.411267996666425, 26.676140072569126 ], [ 88.410411390704269, 26.675140698946507 ], [ 88.409554784742113, 26.67396286574882 ], [ 88.408662486865069, 26.672463805315147 ], [ 88.408555411119664, 26.671678583183223 ], [ 88.408412643459371, 26.671036128711535 ], [ 88.407770188987911, 26.67017952274955 ], [ 88.407520345582213, 26.669322916787394 ], [ 88.407770188987911, 26.668787538060997 ], [ 88.407841572817972, 26.667395553372558 ], [ 88.407127734516223, 26.666074952514407 ], [ 88.406164052808833, 26.664611583995793 ], [ 88.405378830676909, 26.663398058882819 ], [ 88.404843451950626, 26.662934063986654 ], [ 88.403737002582943, 26.662755604411359 ], [ 88.402630553215261, 26.662969755901827 ], [ 88.401666871507871, 26.663255291222583 ], [ 88.400485254659429, 26.664313833649601 ] ] ] } },
{ "type": "Feature", "properties": { "name": "Sadar_Baropatia Natunbos_Nathua Char_WZ", "risk": "High", "population": 100 }, "geometry": { "type": "Polygon", "coordinates": [ [ [ 88.625386174737173, 26.6515840349889 ], [ 88.625338585517, 26.652678587051582 ], [ 88.625624120837699, 26.654153852875254 ], [ 88.625624120837699, 26.655629118698869 ], [ 88.624910282536007, 26.656723670761551 ], [ 88.625862066938396, 26.657580276723536 ], [ 88.626195191479155, 26.658579650345985 ], [ 88.62805117106376, 26.659293488647847 ], [ 88.629954739868367, 26.65967420240861 ], [ 88.630858935050583, 26.66010250538983 ], [ 88.632286611654024, 26.66276750171636 ], [ 88.634047412798338, 26.663766875338808 ], [ 88.638092496508307, 26.664956605841724 ], [ 88.640091243753147, 26.664956605841724 ], [ 88.644183916683176, 26.664385535200267 ], [ 88.648038643512621, 26.66243437717543 ], [ 88.648800071034543, 26.660721165251289 ], [ 88.648752481814313, 26.659293488647847 ], [ 88.648514535713844, 26.657532687503476 ], [ 88.647372394431102, 26.655676707918872 ], [ 88.647277215990869, 26.652916533152109 ], [ 88.646896502229936, 26.650441893706045 ], [ 88.646563377689006, 26.649680466184293 ], [ 88.645897128607487, 26.648681092561844 ], [ 88.644136327463116, 26.648681092561844 ], [ 88.643136953840667, 26.648681092561844 ], [ 88.641947223337752, 26.648585914121611 ], [ 88.64085267127507, 26.647967254259981 ], [ 88.63856838870953, 26.647301005178463 ], [ 88.637378658206615, 26.647205826738229 ], [ 88.633761877477639, 26.64887144944214 ], [ 88.63276250385519, 26.649823233844586 ], [ 88.631715541012738, 26.651012964347501 ], [ 88.630525810509823, 26.651393678108434 ], [ 88.628193938723996, 26.651203321227968 ], [ 88.625386174737173, 26.6515840349889 ] ] ] } },
{ "type": "Feature", "properties": { "name": "Sadar_Baropatia Natunbos_Das Para_WZ", "risk": "High", "population": 100 }, "geometry": { "type": "Polygon", "coordinates": [ [ [ 88.621297, 26.662394 ], [ 88.619708780777273, 26.663219599307354 ], [ 88.618223997109681, 26.664418847654417 ], [ 88.617824247660678, 26.666303380770955 ], [ 88.61685342757022, 26.668359235080004 ], [ 88.616510785185369, 26.670129554068296 ], [ 88.616453678121218, 26.672356729569742 ], [ 88.616453678121218, 26.674526798007207 ], [ 88.616474906982887, 26.675849303659902 ], [ 88.616995, 26.677092 ], [ 88.616631363545821, 26.678184154824805 ], [ 88.616907622247254, 26.679057448705009 ], [ 88.617398567017972, 26.679935549880611 ], [ 88.617430815637363, 26.681603034998034 ], [ 88.617013832970486, 26.682962412942516 ], [ 88.615965454157902, 26.684135837663803 ], [ 88.617739229853669, 26.684792723082182 ], [ 88.61804506247438, 26.684388167915245 ], [ 88.619985918717248, 26.68444326161142 ], [ 88.62053733809995, 26.683782592905345 ], [ 88.621927136436966, 26.681894449883373 ], [ 88.622904225885407, 26.680620351190839 ], [ 88.624229722700647, 26.679633674821446 ], [ 88.625647285026673, 26.678431439326971 ], [ 88.627410219735623, 26.677140644719771 ], [ 88.628412373444974, 26.676570283686203 ], [ 88.630698844655058, 26.67593088973257 ], [ 88.631705342203475, 26.675567595483471 ], [ 88.633087296616395, 26.6747874408141 ], [ 88.634793729633543, 26.67464147642221 ], [ 88.635241902223243, 26.671728551864305 ], [ 88.634385296261257, 26.669901125811862 ], [ 88.633128940850099, 26.66847344920825 ], [ 88.631815478374961, 26.667388414989716 ], [ 88.631073086541051, 26.665503881872951 ], [ 88.628617482783056, 26.664019098205358 ], [ 88.626847163794764, 26.663847777012961 ], [ 88.624277345908467, 26.663105385179051 ], [ 88.621297, 26.662394 ] ] ] } },
{ "type": "Feature", "properties": { "name": "Rajganj_Mantadari_Milonpally_WZ", "risk": "High", "population": 200 }, "geometry": { "type": "Polygon", "coordinates": [ [ [ 88.589015737308159, 26.734712576512379 ], [ 88.591966268955389, 26.731952401745559 ], [ 88.595392692803898, 26.730334368261651 ], [ 88.598057689130428, 26.728525977897107 ], [ 88.602340718940923, 26.72624169533151 ], [ 88.60662374875136, 26.723386342124627 ], [ 88.608241782235268, 26.719959918276174 ], [ 88.60966945883888, 26.716343137547199 ], [ 88.611382670763021, 26.712821535258684 ], [ 88.612619990485939, 26.710537252693086 ], [ 88.613762131768851, 26.706444579763115 ], [ 88.616712663416138, 26.698354412343235 ], [ 88.618235518459812, 26.694832810054663 ], [ 88.619187302862201, 26.693214776570585 ], [ 88.614999451491769, 26.693405133451051 ], [ 88.611763384523954, 26.693785847212041 ], [ 88.607861068474278, 26.693500311891341 ], [ 88.605005715267453, 26.693595490331575 ], [ 88.60395875242483, 26.695784594456882 ], [ 88.603482860223608, 26.703018155914663 ], [ 88.604149109305297, 26.706254222882649 ], [ 88.603578038663841, 26.709204754529708 ], [ 88.602911789582322, 26.713773319661072 ], [ 88.601960005179933, 26.717865992591044 ], [ 88.598343224450957, 26.723100806803927 ], [ 88.595297514363665, 26.724623661847602 ], [ 88.592251804276145, 26.727003122853432 ], [ 88.586636276302329, 26.72824044257635 ], [ 88.584542350617198, 26.730334368261651 ], [ 88.583495387774747, 26.732713829267482 ], [ 88.583400209334513, 26.734236684311156 ], [ 88.584542350617198, 26.735188468713545 ], [ 88.587778417585184, 26.736330609996287 ], [ 88.589015737308159, 26.734712576512379 ] ] ] } },
{ "type": "Feature", "properties": { "name": "Matiali_Bidhan Nagar_Jahaj_Basty_WZ", "risk": "Low", "population": 200 }, "geometry": { "type": "Polygon", "coordinates": [ [ [ 88.748987340692736, 26.915677553666626 ], [ 88.749260978708264, 26.915606169836451 ], [ 88.749379951758726, 26.915629964446623 ], [ 88.74948702750396, 26.915594272531393 ], [ 88.749760665519659, 26.915570477921392 ], [ 88.749879638569951, 26.91549909409116 ], [ 88.749832049349891, 26.915344429125923 ], [ 88.749855843959949, 26.915237353380633 ], [ 88.749879638569951, 26.915058893805167 ], [ 88.749939125094954, 26.914892331534702 ], [ 88.749998611620185, 26.914618693519174 ], [ 88.750081892755418, 26.914380747418477 ], [ 88.750355530771117, 26.914321260893246 ], [ 88.750593476871643, 26.914249877063241 ], [ 88.750700552616877, 26.914249877063241 ], [ 88.750914704107402, 26.913952444437484 ], [ 88.751021779852806, 26.913714498336788 ], [ 88.751164547513099, 26.913417065711087 ], [ 88.751461980138799, 26.913060146560326 ], [ 88.751652337019323, 26.91277461123957 ], [ 88.751818899289788, 26.91244148669864 ], [ 88.751723720849554, 26.912227335208172 ], [ 88.751343007088565, 26.912036978327706 ], [ 88.751021779852806, 26.91210836215788 ], [ 88.750700552616877, 26.912203540598171 ], [ 88.750367428076174, 26.91242958939381 ], [ 88.750117584670477, 26.912750816629568 ], [ 88.749927227789954, 26.912964968120093 ], [ 88.749677384384427, 26.91315532500056 ], [ 88.749665487079426, 26.913345681881026 ], [ 88.749439438283787, 26.913547936066493 ], [ 88.749106313743027, 26.913666909116785 ], [ 88.748737497287038, 26.91383347138725 ], [ 88.74851144849157, 26.913988136352543 ], [ 88.748356783526106, 26.914345055503475 ], [ 88.748202118560812, 26.914737666569408 ], [ 88.748142632035581, 26.915213558770631 ], [ 88.748285399696044, 26.915629964446623 ], [ 88.748559037711743, 26.915618067141622 ], [ 88.748832675727272, 26.915594272531393 ], [ 88.748987340692736, 26.915677553666626 ] ] ] } },
{ "type": "Feature", "properties": { "name": "Matiali_Bidhan Nagar_Jahaj_Basty_WZ", "risk": "Low", "population": 200 }, "geometry": { "type": "Polygon", "coordinates": [ [ [ 88.753202952441484, 26.916096338803698 ], [ 88.753126809689149, 26.91589646407931 ], [ 88.753050666937099, 26.915668035822705 ], [ 88.753050666937099, 26.915449125410248 ], [ 88.753126809689149, 26.915268286373703 ], [ 88.753107774001251, 26.914992268897095 ], [ 88.752955488496866, 26.914935161832943 ], [ 88.752784167304242, 26.915001786741016 ], [ 88.752688988864008, 26.915135036557388 ], [ 88.752631881800085, 26.915287322061772 ], [ 88.752555739047864, 26.91556333953838 ], [ 88.752584292579854, 26.915744178574926 ], [ 88.752517667671782, 26.915820321327089 ], [ 88.7524129713874, 26.915963088987382 ], [ 88.752289239415177, 26.916029713895625 ], [ 88.75211791822278, 26.915982124675395 ], [ 88.751832382902023, 26.916029713895625 ], [ 88.751841900746001, 26.916724516509305 ], [ 88.751889489966175, 26.916895837701702 ], [ 88.751927561342256, 26.917038605361995 ], [ 88.751984668406408, 26.917133783802228 ], [ 88.752089364690619, 26.917257515774622 ], [ 88.752241650195003, 26.917409801279007 ], [ 88.752270203727164, 26.917638229535612 ], [ 88.752422489231549, 26.917742925819766 ], [ 88.752574774735933, 26.917752443663687 ], [ 88.752774649460321, 26.917838104259999 ], [ 88.752936452808626, 26.917819068571987 ], [ 88.753060184781077, 26.917619193847543 ], [ 88.75315536322131, 26.917314622838774 ], [ 88.753326684413707, 26.917029087518074 ], [ 88.753345720101777, 26.916791141417548 ], [ 88.753260059505465, 26.916734034353397 ], [ 88.753145845377162, 26.916553195316851 ], [ 88.753174398909323, 26.916324767060303 ], [ 88.753202952441484, 26.916096338803698 ] ] ] } },
{ "type": "Feature", "properties": { "name": "Matiali_Indong Matiali_Engo Tg, Neora Line_WZ", "risk": "Medium", "population": 100 }, "geometry": { "type": "Polygon", "coordinates": [ [ [ 88.758304926120786, 26.957573905194977 ], [ 88.758711008093258, 26.957599690821439 ], [ 88.759115516464249, 26.957694869261672 ], [ 88.75942484639495, 26.958075583022605 ], [ 88.759686587105477, 26.958432502173366 ], [ 88.759876943986001, 26.958503886003598 ], [ 88.760067300866467, 26.958313529123132 ], [ 88.760067300866467, 26.958027993802432 ], [ 88.759995917036406, 26.957694869261672 ], [ 88.759876943986001, 26.957433128550974 ], [ 88.759876943986001, 26.957123798620216 ], [ 88.760210068526931, 26.957028620179983 ], [ 88.760781139168159, 26.956957236349751 ], [ 88.760971496048683, 26.956981030959753 ], [ 88.761233236759381, 26.956957236349751 ], [ 88.76156636130014, 26.956719290249225 ], [ 88.761637745130315, 26.956433754928526 ], [ 88.762042253501306, 26.956624111808992 ], [ 88.762280199602003, 26.95721897706045 ], [ 88.762589529532761, 26.95757589621121 ], [ 88.762779886413227, 26.95790902075214 ], [ 88.762803681023229, 26.958146966852667 ], [ 88.762637118752764, 26.958503886003598 ], [ 88.762399172652238, 26.958908394374589 ], [ 88.762399172652238, 26.959146340475115 ], [ 88.762660913362765, 26.959527054236048 ], [ 88.763065421733927, 26.95959843806628 ], [ 88.763660286985385, 26.959479465016045 ], [ 88.763803054645678, 26.959051162034882 ], [ 88.764017206136145, 26.958765626714126 ], [ 88.7642789468469, 26.958646653663891 ], [ 88.764397919897135, 26.958337323733133 ], [ 88.764421714507137, 26.958075583022605 ], [ 88.76423135762667, 26.957694869261672 ], [ 88.764041000746204, 26.957528306991208 ], [ 88.763731670815446, 26.957242771670451 ], [ 88.763612697765211, 26.957076209399986 ], [ 88.763231984004221, 26.956981030959753 ], [ 88.762756091803055, 26.956695495639224 ], [ 88.762684707972994, 26.956195808827999 ], [ 88.762446761872297, 26.955838889677068 ], [ 88.762351583432064, 26.955672327406603 ], [ 88.762089842721537, 26.95552955974631 ], [ 88.761613950520314, 26.955553354356368 ], [ 88.760947701438624, 26.955672327406603 ], [ 88.760519398457632, 26.955743711236835 ], [ 88.7601624793067, 26.955934068117301 ], [ 88.759829354765941, 26.955957862727303 ], [ 88.759615203275473, 26.955981657337361 ], [ 88.759448641005008, 26.955934068117301 ], [ 88.759114930427245, 26.955854719949457 ], [ 88.758846786494416, 26.956474430568107 ], [ 88.758304926120786, 26.957573905194977 ] ] ] } },
{ "type": "Feature", "properties": { "name": "Matiali_Bidhan Nagar_Makrapara_WZ", "risk": "Medium", "population": 100 }, "geometry": { "type": "Polygon", "coordinates": [ [ [ 88.75231684121087, 26.84444358473354 ], [ 88.752102689720573, 26.844776709274299 ], [ 88.752090792415402, 26.845026552679997 ], [ 88.7523525331261, 26.845442958355989 ], [ 88.752673760361859, 26.84585936403198 ], [ 88.752828425327266, 26.846382845453206 ], [ 88.753102063343022, 26.846834943044371 ], [ 88.753209139088256, 26.847239451415362 ], [ 88.753209139088256, 26.847524986736119 ], [ 88.753256728308259, 26.848072262767346 ], [ 88.753351906748549, 26.848464873833336 ], [ 88.753554160934016, 26.848762306459207 ], [ 88.753815901644714, 26.849119225609968 ], [ 88.754041950440239, 26.849369069015665 ], [ 88.754398869591171, 26.849618912421192 ], [ 88.754505945336405, 26.849654604336251 ], [ 88.755184091723095, 26.849654604336251 ], [ 88.755481524348852, 26.849464247455728 ], [ 88.755612394704087, 26.849297685185434 ], [ 88.755957416550018, 26.849143020220026 ], [ 88.756123978820312, 26.849024047169735 ], [ 88.756242951870604, 26.848964560644504 ], [ 88.756457103361242, 26.849000252559733 ], [ 88.756683152156768, 26.848988355254733 ], [ 88.756932995562295, 26.84885748489944 ], [ 88.756968687477467, 26.848714717239034 ], [ 88.756956790172467, 26.848345900783045 ], [ 88.756873509037234, 26.847905700497051 ], [ 88.756599871021535, 26.847774830141589 ], [ 88.756135876125313, 26.847691549006356 ], [ 88.755802751584554, 26.847703446311584 ], [ 88.755541010873856, 26.847703446311584 ], [ 88.755552908178856, 26.847477397515888 ], [ 88.755493421653853, 26.847132375670128 ], [ 88.755303064773386, 26.846930121484661 ], [ 88.755303064773386, 26.846692175383964 ], [ 88.755422037823621, 26.846311461623145 ], [ 88.755303064773386, 26.84619248857274 ], [ 88.755291167468329, 26.846073515522448 ], [ 88.754969940232456, 26.845954542472214 ], [ 88.754660610301698, 26.845966439777214 ], [ 88.754613021081639, 26.845990234387216 ], [ 88.754517842641405, 26.846049720912447 ], [ 88.754363177675941, 26.846180591267739 ], [ 88.754172820795645, 26.846299564318144 ], [ 88.753720723204481, 26.846299564318144 ], [ 88.753530366324014, 26.845942645167213 ], [ 88.75331621483349, 26.845550034101223 ], [ 88.753006884902788, 26.845216909560293 ], [ 88.752828425327266, 26.844859990409532 ], [ 88.752721349582032, 26.844598249698834 ], [ 88.752519095396565, 26.844300817073133 ], [ 88.75231684121087, 26.84444358473354 ] ] ] } },
{ "type": "Feature", "properties": { "name": "Sadar_Boalmari Nandanpur_Bahir Char_WZ", "risk": "High", "population": 50 }, "geometry": { "type": "Polygon", "coordinates": [ [ [ 88.819072921597467, 26.418270486010954 ], [ 88.819484707944866, 26.418143444370287 ], [ 88.820257280433168, 26.417682224452733 ], [ 88.820676582053238, 26.417223446484229 ], [ 88.821282254514415, 26.416572949650799 ], [ 88.821785699160216, 26.416215024981852 ], [ 88.822689722954181, 26.415663843678431 ], [ 88.823031047669474, 26.415447276844418 ], [ 88.824340840980483, 26.414742745643423 ], [ 88.824874144559374, 26.414248731089515 ], [ 88.825318356057892, 26.413655544442861 ], [ 88.825944970946011, 26.413024202862232 ], [ 88.826737157696527, 26.412258409131425 ], [ 88.827647790662752, 26.411512162573899 ], [ 88.827647053105352, 26.410920372571468 ], [ 88.827646424447323, 26.410415959734621 ], [ 88.82831640088466, 26.41001332883269 ], [ 88.828647803918045, 26.40983713566493 ], [ 88.829158219184023, 26.4094078820346 ], [ 88.829754100874311, 26.408848567330153 ], [ 88.830145182392926, 26.408420837241465 ], [ 88.830494411195787, 26.408366214296734 ], [ 88.83065539842238, 26.407475714199052 ], [ 88.831116595254571, 26.406953941963138 ], [ 88.831701898550705, 26.406229963097132 ], [ 88.832115470270537, 26.405715962247598 ], [ 88.832483800895545, 26.405360166860874 ], [ 88.832939304705292, 26.40440674889993 ], [ 88.832760845129826, 26.403365734709894 ], [ 88.832136236615781, 26.402741126195792 ], [ 88.830887019587806, 26.403098045346781 ], [ 88.829816262135182, 26.402294977257213 ], [ 88.827258341553886, 26.4020272878941 ], [ 88.826544503252137, 26.401759598530987 ], [ 88.82499785359829, 26.402057031156687 ], [ 88.823153771318857, 26.402741126195792 ], [ 88.822588649329873, 26.403276504922246 ], [ 88.821874811028124, 26.40491238436374 ], [ 88.821577378402424, 26.405804682240955 ], [ 88.820387647899508, 26.406934926218639 ], [ 88.819673809597759, 26.40809491345891 ], [ 88.819406120234646, 26.409016954598712 ], [ 88.816312820927124, 26.410593347515203 ], [ 88.816431793977358, 26.411545131917421 ], [ 88.816164104614245, 26.412645632632689 ], [ 88.815955901776192, 26.414103052498717 ], [ 88.816342564189711, 26.414549201437296 ], [ 88.81684819965335, 26.415352269526863 ], [ 88.817115889016463, 26.416363540454313 ], [ 88.817681011005334, 26.41695840570577 ], [ 88.819072921597467, 26.418270486010954 ] ] ] } },
{ "type": "Feature", "properties": { "name": "Sadar_Kharia_Vivekananda Pally_WZ", "risk": "High", "population": 200 }, "geometry": { "type": "Polygon", "coordinates": [ [ [ 88.751147979383632, 26.561808598881385 ], [ 88.751088492858628, 26.560880609088997 ], [ 88.750481730301942, 26.559774159721314 ], [ 88.749946351575716, 26.559345856740322 ], [ 88.74937528093426, 26.558846169929154 ], [ 88.749410972849489, 26.557989563966942 ], [ 88.748946977953267, 26.557061574174782 ], [ 88.748447291142099, 26.556383427788091 ], [ 88.748661442632567, 26.555098518844886 ], [ 88.748018988161107, 26.554241912882731 ], [ 88.747626377095116, 26.553742226071506 ], [ 88.747376533689419, 26.552421625213356 ], [ 88.747769144755409, 26.551386559675905 ], [ 88.747447917519651, 26.550744105204217 ], [ 88.746734079217902, 26.549423504346066 ], [ 88.746484235812204, 26.548745357959376 ], [ 88.745699013680451, 26.548888125619612 ], [ 88.745270710699288, 26.54817428731792 ], [ 88.744485488567364, 26.54710352986524 ], [ 88.743379039199681, 26.546496767308781 ], [ 88.742415357492291, 26.546389691563547 ], [ 88.741166140464316, 26.54574723709203 ], [ 88.740523685992628, 26.544640787724347 ], [ 88.740095383011635, 26.543926949422655 ], [ 88.739488620455177, 26.543177419205733 ], [ 88.739417236624945, 26.542642040479507 ], [ 88.739417236624945, 26.541749742602121 ], [ 88.738524938747787, 26.541464207281592 ], [ 88.73756125704034, 26.541642666857058 ], [ 88.73720433788958, 26.541749742602121 ], [ 88.73688311065365, 26.542998959630268 ], [ 88.737168645974407, 26.543855565592423 ], [ 88.737347105549873, 26.54478355538464 ], [ 88.737704024700804, 26.545497393686333 ], [ 88.737934, 26.546869 ], [ 88.737846792361097, 26.547246297525703 ], [ 88.737775408530865, 26.547995827742625 ], [ 88.737418489380104, 26.548745357959376 ], [ 88.737347105549873, 26.549352120515834 ], [ 88.736954494483882, 26.550422877968458 ], [ 88.736776034908416, 26.551386559675905 ], [ 88.73620496426696, 26.552421625213356 ], [ 88.735705277455963, 26.553313923090514 ], [ 88.735341000000119, 26.554421 ], [ 88.735062822984275, 26.555205594590177 ], [ 88.735134206814507, 26.555848049061808 ], [ 88.736097888521897, 26.556276352042801 ], [ 88.737418489380104, 26.556526195448328 ], [ 88.73827509534226, 26.557061574174782 ], [ 88.738739090238255, 26.558453558863164 ], [ 88.739595696200411, 26.559238780995088 ], [ 88.740809221313384, 26.560595073768468 ], [ 88.751147979383632, 26.561808598881385 ] ] ] } },
{ "type": "Feature", "properties": { "name": "Dhupguri Municipality Waterlogging Zone", "risk": "Medium", "population": 500 }, "geometry": { "type": "Polygon", "coordinates": [ [ [ 88.998907304787167, 26.573453161473083 ], [ 88.998978688617399, 26.571882717209235 ], [ 88.995587956684119, 26.572203944444936 ], [ 88.995516572853887, 26.57341746955808 ], [ 88.998907304787167, 26.573453161473083 ] ] ] } },
{ "type": "Feature", "properties": { "name": "Dhupguri Municipality Waterlogging Zone", "risk": "Medium", "population": 500 }, "geometry": { "type": "Polygon", "coordinates": [ [ [ 89.00433077060012, 26.573032548116885 ], [ 89.004102342343742, 26.572647075433906 ], [ 89.003845360554976, 26.572447200709519 ], [ 89.003659762596669, 26.572318709815136 ], [ 89.003274289913747, 26.572290156282975 ], [ 89.003302843445738, 26.574003368207286 ], [ 89.003915554654782, 26.57401645524277 ], [ 89.003906429919141, 26.573602239788841 ], [ 89.003734368150958, 26.573352884697783 ], [ 89.003820660080635, 26.573220259983714 ], [ 89.004216556472045, 26.573375190501736 ], [ 89.004459261494503, 26.573303806671504 ], [ 89.00433077060012, 26.573032548116885 ] ] ] } },
{ "type": "Feature", "properties": { "name": "Dhupguri Municipality Waterlogging Zone", "risk": "Medium", "population": 500 }, "geometry": { "type": "Polygon", "coordinates": [ [ [ 89.003761405239061, 26.576094363189611 ], [ 89.003594079852633, 26.575601940283605 ], [ 89.003310497378493, 26.575269879950952 ], [ 89.002656145601804, 26.575091420375657 ], [ 89.002209996663225, 26.575180650163304 ], [ 89.001853077512465, 26.575329366476183 ], [ 89.001734104462003, 26.575686285627114 ], [ 89.001704361199586, 26.57613243456575 ], [ 89.001942307300112, 26.576638070029333 ], [ 89.00232896971346, 26.577054475705324 ], [ 89.002091023612991, 26.577589854431778 ], [ 89.001912564037525, 26.578214462945823 ], [ 89.002477686026509, 26.578541638834167 ], [ 89.003280754115906, 26.578868814722341 ], [ 89.003361655790059, 26.579213836568272 ], [ 89.003176057831695, 26.579684969847335 ], [ 89.002947629575146, 26.579742076911486 ], [ 89.002290898337549, 26.579941951636044 ], [ 89.002162407443222, 26.580298870786805 ], [ 89.002062470081, 26.580727173767968 ], [ 89.002176684209303, 26.581184030280951 ], [ 89.002105300379071, 26.581583779729954 ], [ 89.002248068039307, 26.582026359477027 ], [ 89.002590710424215, 26.582226234201642 ], [ 89.003104674001463, 26.582326171563864 ], [ 89.00343303962029, 26.582426108926086 ], [ 89.00371857494099, 26.582783028077017 ], [ 89.004318199114437, 26.582840135141169 ], [ 89.004489850109678, 26.582378090437487 ], [ 89.004460966774843, 26.581226860579193 ], [ 89.004789332393671, 26.580984155556564 ], [ 89.006088518102729, 26.580755727299959 ], [ 89.006366915040417, 26.579949090019113 ], [ 89.006259839295126, 26.579021100226726 ], [ 89.005688768653897, 26.578628489160735 ], [ 89.005546000993434, 26.577843267028811 ], [ 89.004225400135226, 26.577878958943984 ], [ 89.004118324389992, 26.577129428727062 ], [ 89.003761405239061, 26.576094363189611 ] ] ] } },
{ "type": "Feature", "properties": { "name": "Dhupguri Municipality Waterlogging Zone", "risk": "Medium", "population": 500 }, "geometry": { "type": "Polygon", "coordinates": [ [ [ 89.0097250087004, 26.578570886375644 ], [ 89.00871611723386, 26.578666064815877 ], [ 89.00879225998608, 26.579370385273648 ], [ 89.009801151452621, 26.579237135457277 ], [ 89.0097250087004, 26.578570886375644 ] ] ] } },
{ "type": "Feature", "properties": { "name": "Dhupguri Municipality Waterlogging Zone", "risk": "Medium", "population": 500 }, "geometry": { "type": "Polygon", "coordinates": [ [ [ 89.014464895024048, 26.58106456150972 ], [ 89.013874788694523, 26.581197811326092 ], [ 89.014255502455512, 26.582663559305615 ], [ 89.014845608784981, 26.582549345177313 ], [ 89.014464895024048, 26.58106456150972 ] ] ] } },
{ "type": "Feature", "properties": { "name": "Dhupguri Municipality Waterlogging Zone", "risk": "Medium", "population": 500 }, "geometry": { "type": "Polygon", "coordinates": [ [ [ 89.009052810966125, 26.581646339725751 ], [ 89.008785000499699, 26.581326999895055 ], [ 89.008537209723215, 26.582279640127012 ], [ 89.008795829177586, 26.582431561857675 ], [ 89.009052810966125, 26.581646339725751 ] ] ] } },
{ "type": "Feature", "properties": { "name": "Dhupguri Municipality Waterlogging Zone", "risk": "Medium", "population": 500 }, "geometry": { "type": "Polygon", "coordinates": [ [ [ 89.012512099642834, 26.583135179656722 ], [ 89.012660204869007, 26.583772363276182 ], [ 89.013151432548739, 26.583596308019935 ], [ 89.012789754475818, 26.581959238848015 ], [ 89.012471645115795, 26.582118270718865 ], [ 89.012706150101565, 26.582933980183668 ], [ 89.012512099642834, 26.583135179656722 ] ] ] } },
{ "type": "Feature", "properties": { "name": "Dhupguri Municipality Waterlogging Zone", "risk": "Medium", "population": 500 }, "geometry": { "type": "Polygon", "coordinates": [ [ [ 89.008757899613727, 26.588699709646562 ], [ 89.009313859803967, 26.592241199689681 ], [ 89.009631495882843, 26.59216736450901 ], [ 89.009364996250156, 26.588093727267108 ], [ 89.011002065422133, 26.587237121304952 ], [ 89.010583280285061, 26.586532800847181 ], [ 89.008356104783616, 26.587541692313721 ], [ 89.008443700138969, 26.588088339793728 ], [ 89.008757899613727, 26.588699709646562 ] ] ] } },
{ "type": "Feature", "properties": { "name": "Dhupguri Municipality Waterlogging Zone", "risk": "Medium", "population": 500 }, "geometry": { "type": "Polygon", "coordinates": [ [ [ 89.000520349779663, 26.591317410276872 ], [ 89.000915169561495, 26.59144922964208 ], [ 89.001356139496579, 26.591180959697681 ], [ 89.001698889544627, 26.591138779702362 ], [ 89.001996819712133, 26.590449320172752 ], [ 89.002120172010279, 26.589957697874809 ], [ 89.002291493202677, 26.589143922210724 ], [ 89.002377153798989, 26.588758449527802 ], [ 89.002762626481911, 26.588472914207102 ], [ 89.003390804187518, 26.588387253610961 ], [ 89.003919044530733, 26.588173102120436 ], [ 89.004461561640028, 26.587859013267746 ], [ 89.004932694919262, 26.588101718290261 ], [ 89.005432381730429, 26.588087441524181 ], [ 89.005803577647328, 26.587958950629968 ], [ 89.004704266662657, 26.587159451731964 ], [ 89.004375901043886, 26.5873022193922 ], [ 89.00379055363635, 26.587644861777108 ], [ 89.003433634485589, 26.587730522373363 ], [ 89.002705519417816, 26.587844736501665 ], [ 89.002163002308521, 26.588073164758271 ], [ 89.001577654900984, 26.588530021271254 ], [ 89.000878093365372, 26.589362832623351 ], [ 89.000164255063623, 26.590314617025626 ], [ 88.991625839651761, 26.589006859708036 ], [ 88.991826980215706, 26.589383540294875 ], [ 88.991965699914545, 26.589559780368404 ], [ 88.992292229681141, 26.589709549628367 ], [ 88.992537319977998, 26.589635310023823 ], [ 88.992649367751198, 26.589983741059882 ], [ 88.992745190221683, 26.590273839613417 ], [ 88.993149329773928, 26.590355580048822 ], [ 88.993028129837455, 26.589959839751884 ], [ 88.993359799647465, 26.589892550119032 ], [ 88.993454948568171, 26.590309025361591 ], [ 88.99324334844124, 26.590606201944809 ], [ 88.993672498155945, 26.591092827245575 ], [ 88.994159869664429, 26.591226289936287 ], [ 88.994481209550543, 26.590826109556758 ], [ 88.994857469737951, 26.590442340270215 ], [ 88.995026669907588, 26.590884119834982 ], [ 88.995289019505094, 26.590987639711898 ], [ 88.995617439794842, 26.590842220453055 ], [ 88.99587304975222, 26.59041319982191 ], [ 88.99623782021564, 26.590502679742826 ], [ 88.996489669829316, 26.590286899596549 ], [ 88.996550739699046, 26.589896160369449 ], [ 88.996964600276272, 26.590486020284857 ], [ 88.997397819505125, 26.590479339721696 ], [ 88.997577738427026, 26.590641255664934 ], [ 88.997712500424313, 26.591191089906374 ], [ 88.998013740133956, 26.591541799872118 ], [ 88.998644610185636, 26.591540129570376 ], [ 88.99890109462109, 26.59181155970208 ], [ 88.999230740223481, 26.591526020136939 ], [ 88.999536250328504, 26.59135250962521 ], [ 88.999871750238128, 26.591116530120985 ], [ 89.000362149681678, 26.591095440441109 ], [ 89.000520349779663, 26.591317410276872 ] ] ] } },
{ "type": "Feature", "properties": { "name": "Dhupguri Municipality Waterlogging Zone", "risk": "Medium", "population": 500 }, "geometry": { "type": "Polygon", "coordinates": [ [ [ 89.002743219544186, 26.595444060392879 ], [ 89.0027814304716, 26.596344280416417 ], [ 89.003003750434573, 26.596389640361167 ], [ 89.00313520955973, 26.596562740172999 ], [ 89.003596689629887, 26.596673694608171 ], [ 89.00416020972483, 26.596682129765611 ], [ 89.004330010142837, 26.596883579862777 ], [ 89.004505830285268, 26.596910169796558 ], [ 89.005077160263113, 26.597008600064214 ], [ 89.005539629929558, 26.597029130138424 ], [ 89.005686269599778, 26.597236700365897 ], [ 89.005992719934568, 26.597275079591554 ], [ 89.006417069717429, 26.597223010146479 ], [ 89.007577108907981, 26.595687083057669 ], [ 89.00687278845038, 26.595058905352232 ], [ 89.005768718543607, 26.596048761130589 ], [ 89.00382707836286, 26.595420583424982 ], [ 89.002743219544186, 26.595444060392879 ] ] ] } },
{ "type": "Feature", "properties": { "name": "Dhupguri Municipality Waterlogging Zone", "risk": "Medium", "population": 500 }, "geometry": { "type": "Polygon", "coordinates": [ [ [ 89.037533571187112, 26.568911960143453 ], [ 89.036991054077646, 26.567070257324929 ], [ 89.035135074493269, 26.567498560306092 ], [ 89.03549199364403, 26.569325986358535 ], [ 89.037533571187112, 26.568911960143453 ] ] ] } },
{ "type": "Feature", "properties": { "name": "Dhupguri Municipality Waterlogging Zone", "risk": "Medium", "population": 500 }, "geometry": { "type": "Polygon", "coordinates": [ [ [ 89.032876965998582, 26.573553098835475 ], [ 89.03109237024421, 26.572601314433086 ], [ 89.03071165648339, 26.573219974294545 ], [ 89.032377279187358, 26.574171758696934 ], [ 89.032876965998582, 26.573553098835475 ] ] ] } },
{ "type": "Feature", "properties": { "name": "Dhupguri Municipality Waterlogging Zone", "risk": "Medium", "population": 500 }, "geometry": { "type": "Polygon", "coordinates": [ [ [ 89.029300636106939, 26.577843267028982 ], [ 89.029907398663227, 26.577200812557294 ], [ 89.027944343333559, 26.574666686585999 ], [ 89.026588050560179, 26.575630368293446 ], [ 89.028586797805076, 26.578307261924977 ], [ 89.029300636106939, 26.577843267028982 ] ] ] } },
{ "type": "Feature", "properties": { "name": "Dhupguri Municipality Waterlogging Zone", "risk": "Medium", "population": 500 }, "geometry": { "type": "Polygon", "coordinates": [ [ [ 89.015772650242809, 26.577267660403663 ], [ 89.015482114603913, 26.576785100890788 ], [ 89.015093072729428, 26.576971888579749 ], [ 89.015568964930651, 26.577923672981967 ], [ 89.016012443488876, 26.577716716321618 ], [ 89.015772650242809, 26.577267660403663 ] ] ] } },
{ "type": "Feature", "properties": { "name": "Dhupguri Municipality Waterlogging Zone", "risk": "Medium", "population": 500 }, "geometry": { "type": "Polygon", "coordinates": [ [ [ 89.02603125668486, 26.580265558332883 ], [ 89.025403078979252, 26.580513022277501 ], [ 89.02601222099679, 26.58218816282556 ], [ 89.026735577142631, 26.581902627504803 ], [ 89.02603125668486, 26.580265558332883 ] ] ] } },
{ "type": "Feature", "properties": { "name": "Dhupguri Municipality Waterlogging Zone", "risk": "Medium", "population": 500 }, "geometry": { "type": "Polygon", "coordinates": [ [ [ 89.025117543658553, 26.581502878055801 ], [ 89.024908151090017, 26.58079855759803 ], [ 89.024394187512883, 26.581007950166736 ], [ 89.02462261576926, 26.581674199248255 ], [ 89.025117543658553, 26.581502878055801 ] ] ] } },
{ "type": "Feature", "properties": { "name": "Dhupguri Municipality Waterlogging Zone", "risk": "Medium", "population": 500 }, "geometry": { "type": "Polygon", "coordinates": [ [ [ 89.030797515367851, 26.581064442536615 ], [ 89.030964077638316, 26.581445156297605 ], [ 89.031136588561196, 26.581706897008303 ], [ 89.031410226576895, 26.581944843108829 ], [ 89.031737402465239, 26.582218481124528 ], [ 89.031987245870766, 26.581974586371416 ], [ 89.031761197075241, 26.58179612679595 ], [ 89.031517302322186, 26.581528437432837 ], [ 89.031285304874075, 26.581213158849494 ], [ 89.031166331823783, 26.580755112605914 ], [ 89.031124691256196, 26.580457679980157 ], [ 89.030619055792556, 26.580457679980157 ], [ 89.030678542317617, 26.580677780123267 ], [ 89.030702336927618, 26.580826496436146 ], [ 89.030797515367851, 26.581064442536615 ] ] ] } },
{ "type": "Feature", "properties": { "name": "Dhupguri Municipality Waterlogging Zone", "risk": "Medium", "population": 500 }, "geometry": { "type": "Polygon", "coordinates": [ [ [ 89.022857253991617, 26.58587345220252 ], [ 89.022167210299926, 26.585349970781294 ], [ 89.021619934268699, 26.586135192913218 ], [ 89.022238594130158, 26.586587290504212 ], [ 89.022857253991617, 26.58587345220252 ] ] ] } },
{ "type": "Feature", "properties": { "name": "Dhupguri Municipality Waterlogging Zone", "risk": "Medium", "population": 500 }, "geometry": { "type": "Polygon", "coordinates": [ [ [ 89.040721111697621, 26.589554841011079 ], [ 89.041078922983957, 26.589735976084228 ], [ 89.041585242237147, 26.589753788837243 ], [ 89.041901994511022, 26.589641783318086 ], [ 89.042157028093357, 26.589419616457519 ], [ 89.042516744134446, 26.589034755842192 ], [ 89.042411172782124, 26.588885409635679 ], [ 89.041982869800904, 26.588699811677145 ], [ 89.041497459755817, 26.588642704612994 ], [ 89.04118337090307, 26.588528490484691 ], [ 89.040426702303137, 26.588085910737618 ], [ 89.039413051914778, 26.58755767039446 ], [ 89.038713490378996, 26.587400625968087 ], [ 89.037909135094537, 26.587582010111362 ], [ 89.037695691258421, 26.587678198483616 ], [ 89.037215292903227, 26.58776444104501 ], [ 89.036994281429543, 26.587892417752244 ], [ 89.036853624059745, 26.588274130226694 ], [ 89.037018024956353, 26.588558344373496 ], [ 89.037437683181508, 26.58908248382744 ], [ 89.03739230680668, 26.589444922165114 ], [ 89.037278391177892, 26.589761774570036 ], [ 89.037420482083519, 26.590135858355666 ], [ 89.037707957981922, 26.590319353787152 ], [ 89.038189077780316, 26.590339777725774 ], [ 89.038538209262811, 26.590255970475425 ], [ 89.038826005763212, 26.590083492007636 ], [ 89.03899922242465, 26.58974071383858 ], [ 89.039066296562908, 26.58935235852266 ], [ 89.039174245526624, 26.589050448444254 ], [ 89.039278874085937, 26.588884173077929 ], [ 89.039657961181547, 26.588692474464324 ], [ 89.03988847978485, 26.588660514170897 ], [ 89.040169211040336, 26.588763951599503 ], [ 89.040309043613036, 26.58893984922878 ], [ 89.04056325239776, 26.589305244232094 ], [ 89.040721111697621, 26.589554841011079 ] ] ] } },
{ "type": "Feature", "properties": { "name": "Dhupguri Municipality Waterlogging Zone", "risk": "Medium", "population": 500 }, "geometry": { "type": "Polygon", "coordinates": [ [ [ 89.016559390489817, 26.58914981983196 ], [ 89.016661340183134, 26.589403259583094 ], [ 89.016699130023198, 26.589480600028082 ], [ 89.016544449651406, 26.589615279773852 ], [ 89.016315950050455, 26.589496629936718 ], [ 89.016193790144769, 26.589522999952749 ], [ 89.016188520124615, 26.589658670189749 ], [ 89.016326499829461, 26.589934200216589 ], [ 89.016380110108173, 26.590046690301619 ], [ 89.016227190071163, 26.590360109599771 ], [ 89.015980230274181, 26.590457659959213 ], [ 89.016045260300018, 26.590697040200325 ], [ 89.016221910023148, 26.590928620355214 ], [ 89.01597320006772, 26.5910490198454 ], [ 89.01540479978803, 26.591227539680062 ], [ 89.014840570244019, 26.591232810405586 ], [ 89.014406199981977, 26.59123545019122 ], [ 89.014067399573776, 26.591353270331695 ], [ 89.014005440079529, 26.591592380068164 ], [ 89.014077719604472, 26.592032339960326 ], [ 89.015752183428276, 26.591665060290723 ], [ 89.01683721764681, 26.591151096713418 ], [ 89.017493948884407, 26.590437258411725 ], [ 89.0175938862468, 26.590037508962723 ], [ 89.017451118586337, 26.58958065244957 ], [ 89.017367060079494, 26.589139819622233 ], [ 89.017033539680313, 26.588818820323468 ], [ 89.016705280403812, 26.588978110173571 ], [ 89.016559390489817, 26.58914981983196 ] ] ] } }
]
}
