{
  "type": "FeatureCollection",
  "features": [
    {
      "type": "Feature",
      "properties": {
        "name": "Main Road A",
        "status": "Open"
      },
      "geometry": {
        "type": "LineString",
        "coordinates": [
          [
            88.7,
            26.3
          ],
          [
            88.74,
            26.35
          ],
          [
            88.78,
            26.37
          ],
          [
            88.82,
            26.42
          ]
        ]
      }
    },
    {
      "type": "Feature",
      "properties": {
        "name": "Road B",
        "status": "Blocked"
      },
      "geometry": {
        "type": "LineString",
        "coordinates": [
          [
            88.72,
            26.4
          ],
          [
            88.76,
            26.37
          ],
          [
            88.81,
            26.34
          ],
          [
            88.85,
            26.32
          ]
        ]
      }
    },
    {
      "type": "Feature",
      "properties": {
        "name": "Road C",
        "status": "Blocked"
      },
      "geometry": {
        "type": "LineString",
        "coordinates": [
          [
            88.73,
            26.33
          ],
          [
            88.77,
            26.35
          ],
          [
            88.82,
            26.36
          ],
          [
            88.86,
            26.39
          ]
        ]
      }
    },
    {
      "type": "Feature",
      "properties": {
        "name": "Road D",
        "status": "Open"
      },
      "geometry": {
        "type": "LineString",
        "coordinates": [
          [
            88.75,
            26.3
          ],
          [
            88.78,
            26.34
          ],
          [
            88.8,
            26.38
          ],
          [
            88.83,
            26.41
          ]
        ]
      }
    },
    {
      "type": "Feature",
      "properties": {
        "name": "Road E",
        "status": "Blocked"
      },
      "geometry": {
        "type": "LineString",
        "coordinates": [
          [
            88.7,
            26.38
          ],
          [
            88.74,
            26.36
          ],
          [
            88.79,
            26.34
          ],
          [
            88.84,
            26.34
          ]
        ]
      }
    }
  ]
}