{
"type": "FeatureCollection",
"name": "shelters",
"features": [
{ "type": "Feature", "properties": { "name": "Porojhor Maa Tara Pry.School - Fulbari-1 - Rajganj", "capacity": 100, "available": 99, "type": "Evacuation Centre" }, "geometry": { "type": "Point", "coordinates": [ 88.40395, 26.674853 ] } },
{ "type": "Feature", "properties": { "name": "Takimari - Montadari - Rajganj", "capacity": 100, "available": 99, "type": "Evacuation Centre" }, "geometry": { "type": "Point", "coordinates": [ 88.60516, 26.694903 ] } },
{ "type": "Feature", "properties": { "name": "Sanyashikata High School - Sannyashikata - Rajganj", "capacity": 100, "available": 99, "type": "Evacuation Centre" }, "geometry": { "type": "Point", "coordinates": [ 88.4591, 26.5855 ] } },
{ "type": "Feature", "properties": { "name": "Bhola Para High Madrsa - Sukjani-I - Rajganj", "capacity": 100, "available": 99, "type": "Evacuation Centre" }, "geometry": { "type": "Point", "coordinates": [ 88.532977, 26.508171 ] } },
{ "type": "Feature", "properties": { "name": "Nathuachar Bfp School - Baropatia Natunbos - Sadar", "capacity": 100, "available": 99, "type": "Evacuation Centre" }, "geometry": { "type": "Point", "coordinates": [ 88.616995, 26.677092 ] } },
{ "type": "Feature", "properties": { "name": "70 More Club - Baropatia Natunbos - Sadar", "capacity": 100, "available": 99, "type": "Evacuation Centre" }, "geometry": { "type": "Point", "coordinates": [ 88.622186, 26.661671 ] } },
{ "type": "Feature", "properties": { "name": "Barua Para Pry School - Mandalghat - Sadar", "capacity": 100, "available": 99, "type": "Evacuation Centre" }, "geometry": { "type": "Point", "coordinates": [ 88.720341, 26.465937 ] } },
{ "type": "Feature", "properties": { "name": "Fandaitpara Pry.School - Mandalghat - Sadar", "capacity": 100, "available": 99, "type": "Evacuation Centre" }, "geometry": { "type": "Point", "coordinates": [ 88.744091, 26.465852 ] } },
{ "type": "Feature", "properties": { "name": "Motherganj Pry. School - Mandalghat - Sadar", "capacity": 100, "available": 99, "type": "Evacuation Centre" }, "geometry": { "type": "Point", "coordinates": [ 88.754335, 26.455239 ] } },
{ "type": "Feature", "properties": { "name": "Central Mandalghat Pry. School - Mandalghat - Sadar", "capacity": 100, "available": 99, "type": "Evacuation Centre" }, "geometry": { "type": "Point", "coordinates": [ 88.736765, 26.463021 ] } },
{ "type": "Feature", "properties": { "name": "Pradhan Para Pry. School - Mandalghat - Sadar", "capacity": 100, "available": 99, "type": "Evacuation Centre" }, "geometry": { "type": "Point", "coordinates": [ 88.739885, 26.447981 ] } },
{ "type": "Feature", "properties": { "name": "Ranirkamat Pry. School. - Mandalghat - Sadar", "capacity": 100, "available": 99, "type": "Evacuation Centre" }, "geometry": { "type": "Point", "coordinates": [ 88.721095, 26.451701 ] } },
{ "type": "Feature", "properties": { "name": "Icds Centre ,Moral Para Primary School - Patkata - Sadar", "capacity": 100, "available": 99, "type": "Evacuation Centre" }, "geometry": { "type": "Point", "coordinates": [ 88.689419, 26.598911 ] } },
{ "type": "Feature", "properties": { "name": "Bandh Of Tista - Patkata - Sadar", "capacity": 100, "available": 99, "type": "Evacuation Centre" }, "geometry": { "type": "Point", "coordinates": [ 88.684521, 26.603289 ] } },
{ "type": "Feature", "properties": { "name": "Rangdhamali Primary School - Patkata - Sadar", "capacity": 100, "available": 99, "type": "Evacuation Centre" }, "geometry": { "type": "Point", "coordinates": [ 88.670012, 26.614571 ] } },
{ "type": "Feature", "properties": { "name": "Premganj Char Pry School - Paharpur - Sadar", "capacity": 100, "available": 99, "type": "Evacuation Centre" }, "geometry": { "type": "Point", "coordinates": [ 88.733881, 26.580641 ] } },
{ "type": "Feature", "properties": { "name": "Govt Engg College - Paharpur - Sadar", "capacity": 100, "available": 99, "type": "Evacuation Centre" }, "geometry": { "type": "Point", "coordinates": [ 88.703935, 26.546196 ] } },
{ "type": "Feature", "properties": { "name": "Roy Para Primary School - Boalmari Nandanpur - Sadar", "capacity": 100, "available": 99, "type": "Evacuation Centre" }, "geometry": { "type": "Point", "coordinates": [ 88.811274, 26.381925 ] } },
{ "type": "Feature", "properties": { "name": "Roy Para Primary School - Boalmari Nandanpur - Sadar", "capacity": 100, "available": 99, "type": "Evacuation Centre" }, "geometry": { "type": "Point", "coordinates": [ 88.811274, 26.381925 ] } },
{ "type": "Feature", "properties": { "name": "Kachua Abijan Sangha Club - Boalmari Nandanpur - Sadar", "capacity": 100, "available": 99, "type": "Evacuation Centre" }, "geometry": { "type": "Point", "coordinates": [ 88.783234, 26.412192 ] } },
{ "type": "Feature", "properties": { "name": "Nandanpur High School - Boalmari Nandanpur - Sadar", "capacity": 100, "available": 99, "type": "Evacuation Centre" }, "geometry": { "type": "Point", "coordinates": [ 88.768578, 26.424349 ] } },
{ "type": "Feature", "properties": { "name": "Tanti Para Ssk - Boalmari Nandanpur - Sadar", "capacity": 100, "available": 99, "type": "Evacuation Centre" }, "geometry": { "type": "Point", "coordinates": [ 88.758119, 26.441381 ] } },
{ "type": "Feature", "properties": { "name": "Boalmari Ssk - Boalmari Nandanpur - Sadar", "capacity": 100, "available": 99, "type": "Evacuation Centre" }, "geometry": { "type": "Point", "coordinates": [ 88.789524, 26.398095 ] } },
{ "type": "Feature", "properties": { "name": "Jalpaiguri Zilla School - Kharia - Sadar", "capacity": 100, "available": 99, "type": "Evacuation Centre" }, "geometry": { "type": "Point", "coordinates": [ 88.732485, 26.530007 ] } },
{ "type": "Feature", "properties": { "name": "Dharmadeb High School - Kharia - Sadar", "capacity": 100, "available": 99, "type": "Evacuation Centre" }, "geometry": { "type": "Point", "coordinates": [ 88.739906, 26.559659 ] } },
{ "type": "Feature", "properties": { "name": "Gomira Para High School - Nagar Berubari - Sadar", "capacity": 100, "available": 99, "type": "Evacuation Centre" }, "geometry": { "type": "Point", "coordinates": [ 88.702259, 26.399241 ] } },
{ "type": "Feature", "properties": { "name": "Satkura High School - South Berubari - Sadar", "capacity": 100, "available": 99, "type": "Evacuation Centre" }, "geometry": { "type": "Point", "coordinates": [ 88.700422, 26.294559 ] } },
{ "type": "Feature", "properties": { "name": "Manikganj High School - South Berubari - Sadar", "capacity": 100, "available": 99, "type": "Evacuation Centre" }, "geometry": { "type": "Point", "coordinates": [ 88.740187, 26.305997 ] } },
{ "type": "Feature", "properties": { "name": "Chandanidanga Pry School - Garalbari - Sadar", "capacity": 100, "available": 99, "type": "Evacuation Centre" }, "geometry": { "type": "Point", "coordinates": [ 88.632814, 26.436073 ] } },
{ "type": "Feature", "properties": { "name": "Kharijaberubari High School - Kharija Berubari - I - Sadar", "capacity": 100, "available": 99, "type": "Evacuation Centre" }, "geometry": { "type": "Point", "coordinates": [ 88.744237, 26.402701 ] } },
{ "type": "Feature", "properties": { "name": "Udapara Junior High School - Kharija Berubari - I - Sadar", "capacity": 100, "available": 99, "type": "Evacuation Centre" }, "geometry": { "type": "Point", "coordinates": [ 88.713273, 26.420305 ] } },
{ "type": "Feature", "properties": { "name": "Bona Para High School - Kharija Berubari - II - Sadar", "capacity": 100, "available": 99, "type": "Evacuation Centre" }, "geometry": { "type": "Point", "coordinates": [ 88.732381, 26.360195 ] } },
{ "type": "Feature", "properties": { "name": "Abinash Chandra Msk - Kharija Berubari - II - Sadar", "capacity": 100, "available": 99, "type": "Evacuation Centre" }, "geometry": { "type": "Point", "coordinates": [ 88.748554, 26.376194 ] } },
{ "type": "Feature", "properties": { "name": "Panga Jamuna Bhaban - Kharija Berubari - II - Sadar", "capacity": 100, "available": 99, "type": "Evacuation Centre" }, "geometry": { "type": "Point", "coordinates": [ 88.730822, 26.370191 ] } },
{ "type": "Feature", "properties": { "name": "Mohitnagar High School - Arabinda - Sadar", "capacity": 100, "available": 99, "type": "Evacuation Centre" }, "geometry": { "type": "Point", "coordinates": [ 88.679238, 26.534208 ] } },
{ "type": "Feature", "properties": { "name": "Uttar Kumar Parapry. School - Belakoba - Sadar", "capacity": 100, "available": 99, "type": "Evacuation Centre" }, "geometry": { "type": "Point", "coordinates": [ 88.665366, 26.540685 ] } },
{ "type": "Feature", "properties": { "name": "Tarun Shangha - Banarhat-I - Banarhat", "capacity": 100, "available": 99, "type": "Evacuation Centre" }, "geometry": { "type": "Point", "coordinates": [ 89.027493, 26.69965 ] } },
{ "type": "Feature", "properties": { "name": "Lakhipara Jr, High School - Banarhat-Ii - Banarhat", "capacity": 100, "available": 99, "type": "Evacuation Centre" }, "geometry": { "type": "Point", "coordinates": [ 89.015432, 26.815985 ] } },
{ "type": "Feature", "properties": { "name": "Comunity Hall Near Milan Sangha,&\nBinnaguri Tg Pry School,&\nTelipara Tg - Binnaguri - Banarhat", "capacity": 100, "available": 99, "type": "Evacuation Centre" }, "geometry": { "type": "Point", "coordinates": [ 89.052404, 26.749721 ] } },
{ "type": "Feature", "properties": { "name": "Gairkata Marriage Hall - Sakoajhara - Banarhat", "capacity": 100, "available": 99, "type": "Evacuation Centre" }, "geometry": { "type": "Point", "coordinates": [ 89.025589, 26.697676 ] } },
{ "type": "Feature", "properties": { "name": "Engo Tg Pry School - Indong Matiali - Matiali", "capacity": 100, "available": 99, "type": "Evacuation Centre" }, "geometry": { "type": "Point", "coordinates": [ 88.758293, 26.958368 ] } },
{ "type": "Feature", "properties": { "name": "Indira Ssk - Indong Matiali - Matiali", "capacity": 100, "available": 99, "type": "Evacuation Centre" }, "geometry": { "type": "Point", "coordinates": [ 88.763245, 26.936806 ] } },
{ "type": "Feature", "properties": { "name": "Gandrab Line Labour Club - Indong Matiali - Matiali", "capacity": 100, "available": 99, "type": "Evacuation Centre" }, "geometry": { "type": "Point", "coordinates": [ 88.820195, 26.937033 ] } },
{ "type": "Feature", "properties": { "name": "Neora Majhiali Primary School - Matiali Batabario-I - Matiali", "capacity": 100, "available": 99, "type": "Evacuation Centre" }, "geometry": { "type": "Point", "coordinates": [ 88.776663, 26.851996 ] } },
{ "type": "Feature", "properties": { "name": "Bidhan Nagar High School - Bidhan Nagar - Matiali", "capacity": 100, "available": 99, "type": "Evacuation Centre" }, "geometry": { "type": "Point", "coordinates": [ 88.768064, 26.826888 ] } },
{ "type": "Feature", "properties": { "name": "Bidhan Nagar High School - Bidhan Nagar - Matiali", "capacity": 100, "available": 99, "type": "Evacuation Centre" }, "geometry": { "type": "Point", "coordinates": [ 88.768064, 26.826888 ] } },
{ "type": "Feature", "properties": { "name": "Bataigol Basty Primary School - Bidhan Nagar - Matiali", "capacity": 100, "available": 99, "type": "Evacuation Centre" }, "geometry": { "type": "Point", "coordinates": [ 88.758308, 26.856183 ] } },
{ "type": "Feature", "properties": { "name": "Bataigol Basty Primary School - Bidhan Nagar - Matiali", "capacity": 100, "available": 99, "type": "Evacuation Centre" }, "geometry": { "type": "Point", "coordinates": [ 88.758308, 26.856183 ] } },
{ "type": "Feature", "properties": { "name": "Nakhati Tg Primary School - Bidhan Nagar - Matiali", "capacity": 100, "available": 99, "type": "Evacuation Centre" }, "geometry": { "type": "Point", "coordinates": [ 88.751728, 26.916427 ] } },
{ "type": "Feature", "properties": { "name": "Icds Centre, Gumba Line - Matiali Hat - Matiali", "capacity": 100, "available": 99, "type": "Evacuation Centre" }, "geometry": { "type": "Point", "coordinates": [ 88.779378, 26.971951 ] } },
{ "type": "Feature", "properties": { "name": "Sai Msk - Matiali Hat - Matiali", "capacity": 100, "available": 99, "type": "Evacuation Centre" }, "geometry": { "type": "Point", "coordinates": [ 88.78223, 26.971608 ] } },
{ "type": "Feature", "properties": { "name": "Sulkapara Gp Office - Ang I - Nagrakata", "capacity": 100, "available": 99, "type": "Evacuation Centre" }, "geometry": { "type": "Point", "coordinates": [ 88.914503, 26.852451 ] } },
{ "type": "Feature", "properties": { "name": "Lal School - Ang I - Nagrakata", "capacity": 100, "available": 99, "type": "Evacuation Centre" }, "geometry": { "type": "Point", "coordinates": [ 88.95129, 26.800212 ] } },
{ "type": "Feature", "properties": { "name": "Kolabari T.E High School - Ang I - Nagrakata", "capacity": 100, "available": 99, "type": "Evacuation Centre" }, "geometry": { "type": "Point", "coordinates": [ 88.946485, 26.782492 ] } },
{ "type": "Feature", "properties": { "name": "Jaldacca T.G Factory - Ang Ii - Nagrakata", "capacity": 100, "available": 99, "type": "Evacuation Centre" }, "geometry": { "type": "Point", "coordinates": [ 88.892624, 26.715577 ] } },
{ "type": "Feature", "properties": { "name": "Jaldacca Primary School - Ang Ii - Nagrakata", "capacity": 100, "available": 99, "type": "Evacuation Centre" }, "geometry": { "type": "Point", "coordinates": [ 88.892592, 26.715116 ] } },
{ "type": "Feature", "properties": { "name": "Khairkata Board School - Ang Ii - Nagrakata", "capacity": 100, "available": 99, "type": "Evacuation Centre" }, "geometry": { "type": "Point", "coordinates": [ 88.913394, 26.743478 ] } },
{ "type": "Feature", "properties": { "name": "Dhumpara Primary School - Ang Ii - Nagrakata", "capacity": 100, "available": 99, "type": "Evacuation Centre" }, "geometry": { "type": "Point", "coordinates": [ 88.899693, 26.87462 ] } },
{ "type": "Feature", "properties": { "name": "Bamandanga T.G Fatrory - Sulkapara - Nagrakata", "capacity": 100, "available": 99, "type": "Evacuation Centre" }, "geometry": { "type": "Point", "coordinates": [ 88.880328, 26.746901 ] } },
{ "type": "Feature", "properties": { "name": "Tandu Junior High School - Sulkapara - Nagrakata", "capacity": 100, "available": 99, "type": "Evacuation Centre" }, "geometry": { "type": "Point", "coordinates": [ 88.896632, 26.807795 ] } },
{ "type": "Feature", "properties": { "name": "Khairbari Primary School - Sulkapara - Nagrakata", "capacity": 100, "available": 99, "type": "Evacuation Centre" }, "geometry": { "type": "Point", "coordinates": [ 88.902813, 26.830993 ] } },
{ "type": "Feature", "properties": { "name": "Sulkapara High School - Sulkapara - Nagrakata", "capacity": 100, "available": 99, "type": "Evacuation Centre" }, "geometry": { "type": "Point", "coordinates": [ 88.912946, 26.852258 ] } },
{ "type": "Feature", "properties": { "name": "Bangla High School - Sulkapara - Nagrakata", "capacity": 100, "available": 99, "type": "Evacuation Centre" }, "geometry": { "type": "Point", "coordinates": [ 88.913441, 26.884453 ] } },
{ "type": "Feature", "properties": { "name": "Gassmari Primary School - Sulkapara - Nagrakata", "capacity": 100, "available": 99, "type": "Evacuation Centre" }, "geometry": { "type": "Point", "coordinates": [ 88.949196, 26.876179 ] } },
{ "type": "Feature", "properties": { "name": "Oodlabari Hindi High School - Oodlabai - Mal", "capacity": 100, "available": 99, "type": "Evacuation Centre" }, "geometry": { "type": "Point", "coordinates": [ 88.617811, 26.870168 ] } },
{ "type": "Feature", "properties": { "name": "Oodlabari Bidhan Pally Community Hall - Oodlabai - Mal", "capacity": 100, "available": 99, "type": "Evacuation Centre" }, "geometry": { "type": "Point", "coordinates": [ 88.626, 26.863297 ] } },
{ "type": "Feature", "properties": { "name": "Gajoldoba High School - Oodlabai - Mal", "capacity": 100, "available": 99, "type": "Evacuation Centre" }, "geometry": { "type": "Point", "coordinates": [ 88.606121, 26.765863 ] } },
{ "type": "Feature", "properties": { "name": "Bagrakote Tg Community Hall - Bagrakote - Mal", "capacity": 100, "available": 99, "type": "Evacuation Centre" }, "geometry": { "type": "Point", "coordinates": [ 88.578378, 26.88149 ] } },
{ "type": "Feature", "properties": { "name": "Washabari Primary School - Bagrakote - Mal", "capacity": 100, "available": 99, "type": "Evacuation Centre" }, "geometry": { "type": "Point", "coordinates": [ 88.554581, 26.873506 ] } },
{ "type": "Feature", "properties": { "name": "Sonali Tg Primary School - Bagrakote - Mal", "capacity": 100, "available": 99, "type": "Evacuation Centre" }, "geometry": { "type": "Point", "coordinates": [ 88.57157, 26.825952 ] } },
{ "type": "Feature", "properties": { "name": "Paschim Damdim Pry School - Damdim - Mal", "capacity": 100, "available": 99, "type": "Evacuation Centre" }, "geometry": { "type": "Point", "coordinates": [ 88.672237, 26.85286 ] } },
{ "type": "Feature", "properties": { "name": "New Glanco T.G Pry School - Rungamutte - Mal", "capacity": 100, "available": 99, "type": "Evacuation Centre" }, "geometry": { "type": "Point", "coordinates": [ 88.713822, 26.857186 ] } },
{ "type": "Feature", "properties": { "name": "New Glanco T.G Ssk Center - Rungamutte - Mal", "capacity": 100, "available": 99, "type": "Evacuation Centre" }, "geometry": { "type": "Point", "coordinates": [ 88.722093, 26.852468 ] } },
{ "type": "Feature", "properties": { "name": "Tunbari T.G Pry School - Rungamutte - Mal", "capacity": 100, "available": 99, "type": "Evacuation Centre" }, "geometry": { "type": "Point", "coordinates": [ 88.745042, 26.881347 ] } },
{ "type": "Feature", "properties": { "name": "Baradighi High School - Kumlai - Mal", "capacity": 100, "available": 99, "type": "Evacuation Centre" }, "geometry": { "type": "Point", "coordinates": [ 88.743674, 26.799107 ] } },
{ "type": "Feature", "properties": { "name": "Beithguri Bfp School - Kumlai - Mal", "capacity": 100, "available": 99, "type": "Evacuation Centre" }, "geometry": { "type": "Point", "coordinates": [ 88.718308, 26.788009 ] } },
{ "type": "Feature", "properties": { "name": "Beithguri Bfp School & Mach Para Icds - Kumlai - Mal", "capacity": 100, "available": 99, "type": "Evacuation Centre" }, "geometry": { "type": "Point", "coordinates": [ 88.718308, 26.788009 ] } },
{ "type": "Feature", "properties": { "name": "Purba Damdim Pry School - Kumlai - Mal", "capacity": 100, "available": 99, "type": "Evacuation Centre" }, "geometry": { "type": "Point", "coordinates": [ 88.711609, 26.793778 ] } },
{ "type": "Feature", "properties": { "name": "Kantadighi Kumar Para High School & Jumma Para Icds - Kumlai - Mal", "capacity": 100, "available": 99, "type": "Evacuation Centre" }, "geometry": { "type": "Point", "coordinates": [ 88.745909, 26.740269 ] } },
{ "type": "Feature", "properties": { "name": "Kantadighi Kumar Para Sc Primary  School - Kumlai - Mal", "capacity": 100, "available": 99, "type": "Evacuation Centre" }, "geometry": { "type": "Point", "coordinates": [ 88.751618, 26.712703 ] } },
{ "type": "Feature", "properties": { "name": "Sarkar Para Ssk - Kumlai - Mal", "capacity": 100, "available": 99, "type": "Evacuation Centre" }, "geometry": { "type": "Point", "coordinates": [ 88.73596, 26.758689 ] } },
{ "type": "Feature", "properties": { "name": "Danga Para Icds - Kumlai - Mal", "capacity": 100, "available": 99, "type": "Evacuation Centre" }, "geometry": { "type": "Point", "coordinates": [ 88.750072, 26.761114 ] } },
{ "type": "Feature", "properties": { "name": "Thapa Busty Pry School - Tesimla - Mal", "capacity": 100, "available": 99, "type": "Evacuation Centre" }, "geometry": { "type": "Point", "coordinates": [ 88.721281, 26.818653 ] } },
{ "type": "Feature", "properties": { "name": "Tesimal Jr. High School - Tesimla - Mal", "capacity": 100, "available": 99, "type": "Evacuation Centre" }, "geometry": { "type": "Point", "coordinates": [ 88.743383, 26.841793 ] } },
{ "type": "Feature", "properties": { "name": "Hai Hai Pathar B.F.P School - Tesimla - Mal", "capacity": 100, "available": 99, "type": "Evacuation Centre" }, "geometry": { "type": "Point", "coordinates": [ 88.741525, 26.800888 ] } },
{ "type": "Feature", "properties": { "name": "Ward No. 1: Community Centre, Umagati Vidyalaya - Ward No 1 - Jalpaiguri Municipality", "capacity": 100, "available": 99, "type": "Evacuation Centre" }, "geometry": { "type": "Point", "coordinates": [ 88.717, 26.54 ] } },
{ "type": "Feature", "properties": { "name": "Ward No. 2: Saberia School, Purbanchal School - Ward No 2 - Jalpaiguri Municipality", "capacity": 100, "available": 99, "type": "Evacuation Centre" }, "geometry": { "type": "Point", "coordinates": [ 88.745, 26.546 ] } },
{ "type": "Feature", "properties": { "name": "Ward No. 3: Zilla School - Ward No 3 - Jalpaiguri Municipality", "capacity": 100, "available": 99, "type": "Evacuation Centre" }, "geometry": { "type": "Point", "coordinates": [ 88.73208, 26.52976 ] } },
{ "type": "Feature", "properties": { "name": "Ward No. 4: Kamala Nehru School, Agrasen Bhavan, Saha & Chowdhury Sharmasala - Ward No 4 - Jalpaiguri Municipality", "capacity": 100, "available": 99, "type": "Evacuation Centre" }, "geometry": { "type": "Point", "coordinates": [ 88.7279, 26.5192 ] } },
{ "type": "Feature", "properties": { "name": "Ward No. 5: Agrasen Bhavan, Saha & Chowdhury Sharmasala - Ward No 5 - Jalpaiguri Municipality", "capacity": 100, "available": 99, "type": "Evacuation Centre" }, "geometry": { "type": "Point", "coordinates": [ 88.7279, 26.5192 ] } },
{ "type": "Feature", "properties": { "name": "Ward No. 6: Paharipara School, Saha & Chowdhury Sharmasala - Ward 8 - Jalpaiguri Municipality", "capacity": 100, "available": 99, "type": "Evacuation Centre" }, "geometry": { "type": "Point", "coordinates": [ 88.724, 26.5205 ] } },
{ "type": "Feature", "properties": { "name": "Ward No. 7: Bhatia Building - Ward 9 - Jalpaiguri Municipality", "capacity": 100, "available": 99, "type": "Evacuation Centre" }, "geometry": { "type": "Point", "coordinates": [ 88.726, 26.526 ] } },
{ "type": "Feature", "properties": { "name": "Ward No. 8: Fdi - Ward 21 - Jalpaiguri Municipality", "capacity": 100, "available": 99, "type": "Evacuation Centre" }, "geometry": { "type": "Point", "coordinates": [ 88.727395, 26.521734 ] } },
{ "type": "Feature", "properties": { "name": "Ward No. 9: Community Centre - Ward 22 - Jalpaiguri Municipality", "capacity": 100, "available": 99, "type": "Evacuation Centre" }, "geometry": { "type": "Point", "coordinates": [ 88.753, 26.493 ] } },
{ "type": "Feature", "properties": { "name": "Ward No. 10: Fdi - Ward No 25 - Jalpaiguri Municipality", "capacity": 100, "available": 99, "type": "Evacuation Centre" }, "geometry": { "type": "Point", "coordinates": [ 88.727395, 26.521734 ] } },
{ "type": "Feature", "properties": { "name": "Ward No. 11: Jalpaiguri High School, Dulal Dighi Primary School - Na - Jalpaiguri Municipality", "capacity": 100, "available": 99, "type": "Evacuation Centre" }, "geometry": { "type": "Point", "coordinates": [ 88.722874, 26.517308 ] } },
{ "type": "Feature", "properties": { "name": "Ward No. 12: Jalpaiguri High School - Na - Jalpaiguri Municipality", "capacity": 100, "available": 99, "type": "Evacuation Centre" }, "geometry": { "type": "Point", "coordinates": [ 88.722874, 26.517308 ] } },
{ "type": "Feature", "properties": { "name": "Ward No. 13: Deshbandhu School - Na - Jalpaiguri Municipality", "capacity": 100, "available": 99, "type": "Evacuation Centre" }, "geometry": { "type": "Point", "coordinates": [ 88.714, 26.528 ] } },
{ "type": "Feature", "properties": { "name": "Ward No. 14: Deshbandhu School - Na - Jalpaiguri Municipality", "capacity": 100, "available": 99, "type": "Evacuation Centre" }, "geometry": { "type": "Point", "coordinates": [ 88.714, 26.528 ] } },
{ "type": "Feature", "properties": { "name": "Ward No. 15: Mehrunnesa School - Na - Jalpaiguri Municipality", "capacity": 100, "available": 99, "type": "Evacuation Centre" }, "geometry": { "type": "Point", "coordinates": [ 88.725, 26.51 ] } },
{ "type": "Feature", "properties": { "name": "Ward No. 16: Mehrunnesa School - Na - Jalpaiguri Municipality", "capacity": 100, "available": 99, "type": "Evacuation Centre" }, "geometry": { "type": "Point", "coordinates": [ 88.725, 26.51 ] } },
{ "type": "Feature", "properties": { "name": "Ward No. 17: Bus Terminus - Na - Jalpaiguri Municipality", "capacity": 100, "available": 99, "type": "Evacuation Centre" }, "geometry": { "type": "Point", "coordinates": [ 88.716, 26.518 ] } },
{ "type": "Feature", "properties": { "name": "Ward No. 18: Sonaullah High School - Na - Jalpaiguri Municipality", "capacity": 100, "available": 99, "type": "Evacuation Centre" }, "geometry": { "type": "Point", "coordinates": [ 88.713, 26.515 ] } },
{ "type": "Feature", "properties": { "name": "Ward No. 19: Newtown Primary School - Na - Jalpaiguri Municipality", "capacity": 100, "available": 99, "type": "Evacuation Centre" }, "geometry": { "type": "Point", "coordinates": [ 88.72, 26.506 ] } },
{ "type": "Feature", "properties": { "name": "Ward No. 20: Foizonnessa School - Na - Jalpaiguri Municipality", "capacity": 100, "available": 99, "type": "Evacuation Centre" }, "geometry": { "type": "Point", "coordinates": [ 88.711, 26.518 ] } },
{ "type": "Feature", "properties": { "name": "Ward No. 21: A.C. College - Na - Jalpaiguri Municipality", "capacity": 100, "available": 99, "type": "Evacuation Centre" }, "geometry": { "type": "Point", "coordinates": [ 88.71982, 26.52418 ] } },
{ "type": "Feature", "properties": { "name": "Ward No. 22: Arabainda Madhyamik School - Na - Jalpaiguri Municipality", "capacity": 100, "available": 99, "type": "Evacuation Centre" }, "geometry": { "type": "Point", "coordinates": [ 88.708, 26.513 ] } },
{ "type": "Feature", "properties": { "name": "Ward No. 23: Baman Para R.R. - Na - Jalpaiguri Municipality", "capacity": 100, "available": 99, "type": "Evacuation Centre" }, "geometry": { "type": "Point", "coordinates": [ 88.705, 26.529 ] } },
{ "type": "Feature", "properties": { "name": "Ward No. 24: Uttar Para R.R - Na - Jalpaiguri Municipality", "capacity": 100, "available": 99, "type": "Evacuation Centre" }, "geometry": { "type": "Point", "coordinates": [ 88.724, 26.502 ] } },
{ "type": "Feature", "properties": { "name": "Ward No. 25: Community Centre - Na - Jalpaiguri Municipality", "capacity": 100, "available": 99, "type": "Evacuation Centre" }, "geometry": { "type": "Point", "coordinates": [ 88.71, 26.544 ] } },
{ "type": "Feature", "properties": { "name": "Netaji Para New Primary School - Ward No.14 - Dhupguri Municipality", "capacity": 100, "available": 99, "type": "Evacuation Centre" }, "geometry": { "type": "Point", "coordinates": [ 89.004176, 26.588438 ] } },
{ "type": "Feature", "properties": { "name": "Dhupguri Mouza Primary School - Ward No.15 - Dhupguri Municipality", "capacity": 100, "available": 99, "type": "Evacuation Centre" }, "geometry": { "type": "Point", "coordinates": [ 88.995562, 26.586193 ] } },
{ "type": "Feature", "properties": { "name": "Dhupguri Ward No.1 Sp Primary School - Ward No.16 - Dhupguri Municipality", "capacity": 100, "available": 99, "type": "Evacuation Centre" }, "geometry": { "type": "Point", "coordinates": [ 88.999245, 26.579812 ] } },
{ "type": "Feature", "properties": { "name": "Mal Adarsha Vidya Bhavan - Ward No.02 - Mal Municipality", "capacity": 100, "available": 99, "type": "Evacuation Centre" }, "geometry": { "type": "Point", "coordinates": [ 88.746083, 26.869917 ] } },
{ "type": "Feature", "properties": { "name": "Ml College - Ward No.11 - Mal Municipality", "capacity": 100, "available": 99, "type": "Evacuation Centre" }, "geometry": { "type": "Point", "coordinates": [ 88.752861, 26.881861 ] } },
{ "type": "Feature", "properties": { "name": "Subhasini Girls' High School - Ward No.12 - Mal Municipality", "capacity": 100, "available": 99, "type": "Evacuation Centre" }, "geometry": { "type": "Point", "coordinates": [ 88.745861, 26.869861 ] } }
]
}
